{"type":"FeatureCollection","features":[{"type":"Feature","properties":{"city":"Sao Caetano do Sul","country":"Brazil"},"geometry":{"type":"Point","coordinates":[-46.5734556,-23.6479102]}},{"type":"Feature","properties":{"city":"Sao Paulo","country":"Brazil"},"geometry":{"type":"Point","coordinates":[-46.6382541,-23.4932508]}},{"type":"Feature","properties":{"city":"Valinhos","country":"Brazil"},"geometry":{"type":"Point","coordinates":[-46.989094,-22.9622949]}},{"type":"Feature","properties":{"city":"Vargem Grande Paulista","country":"Brazil"},"geometry":{"type":"Point","coordinates":[-47.051124,-23.5978107]}},{"type":"Feature","properties":{"city":"Ipatinga","country":"Brazil"},"geometry":{"type":"Point","coordinates":[-42.5688751,-19.4667463]}},{"type":"Feature","properties":{"city":"Sao Jose dos Campos","country":"Brazil"},"geometry":{"type":"Point","coordinates":[-45.8647499,-23.2541999]}},{"type":"Feature","properties":{"city":"Sao Sebastiao","country":"Brazil"},"geometry":{"type":"Point","coordinates":[-45.7235553,-23.7690821]}},{"type":"Feature","properties":{"city":"Biritiba Mirim","country":"Brazil"},"geometry":{"type":"Point","coordinates":[-45.7613074,-23.7615902]}},{"type":"Feature","properties":{"city":"Ferraz de Vasconcelos","country":"Brazil"},"geometry":{"type":"Point","coordinates":[-46.4025716,-23.6060384]}},{"type":"Feature","properties":{"city":"Maua","country":"Brazil"},"geometry":{"type":"Point","coordinates":[-46.4540226,-23.6346723]}},{"type":"Feature","properties":{"city":"Osasco","country":"Brazil"},"geometry":{"type":"Point","coordinates":[-46.7253758,-23.5463088]}},{"type":"Feature","properties":{"city":"Mongagua","country":"Brazil"},"geometry":{"type":"Point","coordinates":[-46.6495446,-24.1002081]}},{"type":"Feature","properties":{"city":"Miami","country":"United States"},"geometry":{"type":"Point","coordinates":[-80.1901155,25.7649621]}},{"type":"Feature","properties":{"city":"Key Largo","country":"United States"},"geometry":{"type":"Point","coordinates":[-80.430734,25.110364]}},{"type":"Feature","properties":{"city":"South Miami","country":"United States"},"geometry":{"type":"Point","coordinates":[-80.283589,25.708794]}},{"type":"Feature","properties":{"city":"Indaiatuba","country":"Brazil"},"geometry":{"type":"Point","coordinates":[-47.1375685,-23.008205]}},{"type":"Feature","properties":{"city":"Sorocaba","country":"Brazil"},"geometry":{"type":"Point","coordinates":[-47.353429,-23.406446]}},{"type":"Feature","properties":{"city":"Itatiba","country":"Brazil"},"geometry":{"type":"Point","coordinates":[-46.8192512,-23.0119334]}},{"type":"Feature","properties":{"city":"Guarulhos","country":"Brazil"},"geometry":{"type":"Point","coordinates":[-46.473003,-23.5189007]}},{"type":"Feature","properties":{"city":"Cafelandia","country":"Brazil"},"geometry":{"type":"Point","coordinates":[-49.603469,-21.8053846]}},{"type":"Feature","properties":{"city":"Mirandopolis","country":"Brazil"},"geometry":{"type":"Point","coordinates":[-51.1037227,-21.1357115]}},{"type":"Feature","properties":{"city":"Itupeva","country":"Brazil"},"geometry":{"type":"Point","coordinates":[-47.018913,-23.161331]}},{"type":"Feature","properties":{"city":"Rio de Janeiro","country":"Brazil"},"geometry":{"type":"Point","coordinates":[-43.3539481,-23.0097515]}},{"type":"Feature","properties":{"city":"Goiania","country":"Brazil"},"geometry":{"type":"Point","coordinates":[-49.2651039,-16.6856927]}},{"type":"Feature","properties":{"city":"Barretos","country":"Brazil"},"geometry":{"type":"Point","coordinates":[-48.581175,-20.554405]}},{"type":"Feature","properties":{"city":"Castanhal","country":"Brazil"},"geometry":{"type":"Point","coordinates":[-47.9206769,-1.2984101]}},{"type":"Feature","properties":{"city":"Guaratuba","country":"Brazil"},"geometry":{"type":"Point","coordinates":[-48.5732547,-25.9112889]}},{"type":"Feature","properties":{"city":"Embu","country":"Brazil"},"geometry":{"type":"Point","coordinates":[-46.8457305,-23.6246617]}},{"type":"Feature","properties":{"city":"Balneario Camboriu","country":"Brazil"},"geometry":{"type":"Point","coordinates":[-48.624463,-26.998034]}},{"type":"Feature","properties":{"city":"Sarzedo","country":"Brazil"},"geometry":{"type":"Point","coordinates":[-44.146103,-20.025132]}},{"type":"Feature","properties":{"city":"Brumadinho","country":"Brazil"},"geometry":{"type":"Point","coordinates":[-44.201037,-20.1506]}},{"type":"Feature","properties":{"city":"Porto Alegre","country":"Brazil"},"geometry":{"type":"Point","coordinates":[-51.203336,-30.0212774]}},{"type":"Feature","properties":{"city":"Passos","country":"Brazil"},"geometry":{"type":"Point","coordinates":[-46.6084835,-20.7308463]}},{"type":"Feature","properties":{"city":"Ribeirao Preto","country":"Brazil"},"geometry":{"type":"Point","coordinates":[-47.8219434,-21.2039892]}},{"type":"Feature","properties":{"city":"Ivoti","country":"Brazil"},"geometry":{"type":"Point","coordinates":[-51.0877516,-29.5835848]}},{"type":"Feature","properties":{"city":"Pocos de Caldas","country":"Brazil"},"geometry":{"type":"Point","coordinates":[-46.5676107,-21.7897962]}},{"type":"Feature","properties":{"city":"Porto Seguro","country":"Brazil"},"geometry":{"type":"Point","coordinates":[-39.1456955,-16.8061332]}},{"type":"Feature","properties":{"city":"Santo Antonio de Posse","country":"Brazil"},"geometry":{"type":"Point","coordinates":[-46.9478634,-22.6048698]}},{"type":"Feature","properties":{"city":"Curitiba","country":"Brazil"},"geometry":{"type":"Point","coordinates":[-49.287489,-25.440765]}},{"type":"Feature","properties":{"city":"Grapevine","country":"United States"},"geometry":{"type":"Point","coordinates":[-97.0403352,32.8998091]}},{"type":"Feature","properties":{"city":"San Francisco","country":"United States"},"geometry":{"type":"Point","coordinates":[-122.4119065,37.7866571]}},{"type":"Feature","properties":{"city":"Paradise","country":"United States"},"geometry":{"type":"Point","coordinates":[-115.1673126,36.12771]}},{"type":"Feature","properties":{"city":"Aldine","country":"United States"},"geometry":{"type":"Point","coordinates":[-95.4068932,29.9469118]}},{"type":"Feature","properties":{"city":"Mairipora","country":"Brazil"},"geometry":{"type":"Point","coordinates":[-46.6173747,-23.3797941]}},{"type":"Feature","properties":{"city":"Itu","country":"Brazil"},"geometry":{"type":"Point","coordinates":[-47.2988766,-23.2994531]}},{"type":"Feature","properties":{"city":"Sao Roque","country":"Brazil"},"geometry":{"type":"Point","coordinates":[-47.1382762,-23.4296982]}},{"type":"Feature","properties":{"city":"Armacao de Buzios","country":"Brazil"},"geometry":{"type":"Point","coordinates":[-41.922664,-22.7807838]}},{"type":"Feature","properties":{"city":"Seropedica","country":"Brazil"},"geometry":{"type":"Point","coordinates":[-43.73632,-22.709341]}},{"type":"Feature","properties":{"city":"Canela","country":"Brazil"},"geometry":{"type":"Point","coordinates":[-50.8473595,-29.3570496]}},{"type":"Feature","properties":{"city":"Paranagua","country":"Brazil"},"geometry":{"type":"Point","coordinates":[-48.5031689,-25.5111718]}},{"type":"Feature","properties":{"city":"Campinas","country":"Brazil"},"geometry":{"type":"Point","coordinates":[-46.9922104,-22.8927738]}},{"type":"Feature","properties":{"city":"Atibaia","country":"Brazil"},"geometry":{"type":"Point","coordinates":[-46.586183,-23.153038]}},{"type":"Feature","properties":{"city":"Itacare","country":"Brazil"},"geometry":{"type":"Point","coordinates":[-38.9911302,-14.2755721]}},{"type":"Feature","properties":{"city":"Valenca","country":"Brazil"},"geometry":{"type":"Point","coordinates":[-38.9079742,-13.4095048]}},{"type":"Feature","properties":{"city":"Boipeba","country":"Brazil"},"geometry":{"type":"Point","coordinates":[-38.9069793,-13.6104838]}},{"type":"Feature","properties":{"city":"Camamu","country":"Brazil"},"geometry":{"type":"Point","coordinates":[-38.9315102,-13.91903]}},{"type":"Feature","properties":{"city":"Boituva","country":"Brazil"},"geometry":{"type":"Point","coordinates":[-47.7521395,-23.2936533]}},{"type":"Feature","properties":{"city":"Ilhabela","country":"Brazil"},"geometry":{"type":"Point","coordinates":[-45.3677999,-23.8185152]}},{"type":"Feature","properties":{"city":"Ubatuba","country":"Brazil"},"geometry":{"type":"Point","coordinates":[-45.0157577,-23.4009855]}},{"type":"Feature","properties":{"city":"Nilopolis","country":"Brazil"},"geometry":{"type":"Point","coordinates":[-43.471506,-23.032041]}},{"type":"Feature","properties":{"city":"Paraty","country":"Brazil"},"geometry":{"type":"Point","coordinates":[-44.7226531,-23.2040528]}},{"type":"Feature","properties":{"city":"Angra dos Reis","country":"Brazil"},"geometry":{"type":"Point","coordinates":[-44.1614466,-23.1414896]}},{"type":"Feature","properties":{"city":"Belo Horizonte","country":"Brazil"},"geometry":{"type":"Point","coordinates":[-43.9252943,-19.9338873]}},{"type":"Feature","properties":{"city":"Itabirito","country":"Brazil"},"geometry":{"type":"Point","coordinates":[-44.0204429,-20.3144989]}},{"type":"Feature","properties":{"city":"Santo Andre","country":"Brazil"},"geometry":{"type":"Point","coordinates":[-46.5536078,-23.6495573]}},{"type":"Feature","properties":{"city":"Ilheus","country":"Brazil"},"geometry":{"type":"Point","coordinates":[-39.02795,-14.811349]}},{"type":"Feature","properties":{"city":"Itamaraju","country":"Brazil"},"geometry":{"type":"Point","coordinates":[-39.1114961,-16.8963919]}},{"type":"Feature","properties":{"city":"Santa Cruz Cabralia","country":"Brazil"},"geometry":{"type":"Point","coordinates":[-39.0113153,-16.2484361]}},{"type":"Feature","properties":{"city":"Fortaleza","country":"Brazil"},"geometry":{"type":"Point","coordinates":[-38.565332,-3.7920839]}},{"type":"Feature","properties":{"city":"Cruz","country":"Brazil"},"geometry":{"type":"Point","coordinates":[-40.4162946,-2.8125804]}},{"type":"Feature","properties":{"city":"Camocim","country":"Brazil"},"geometry":{"type":"Point","coordinates":[-40.6913558,-2.8528662]}},{"type":"Feature","properties":{"city":"Doha","country":"Qatar"},"geometry":{"type":"Point","coordinates":[51.5565837,25.363047]}},{"type":"Feature","properties":{"city":"Al Wakrah","country":"Qatar"},"geometry":{"type":"Point","coordinates":[51.6138417,25.2608759]}},{"type":"Feature","properties":{"city":"Kiev","country":"Ukraine"},"geometry":{"type":"Point","coordinates":[30.5272729,50.4485682]}},{"type":"Feature","properties":{"city":"Eminoenue","country":"Turkey"},"geometry":{"type":"Point","coordinates":[28.9803654,41.0037088]}},{"type":"Feature","properties":{"city":"Pendik","country":"Turkey"},"geometry":{"type":"Point","coordinates":[29.3168603,40.905371]}},{"type":"Feature","properties":{"city":"Amman","country":"Jordan"},"geometry":{"type":"Point","coordinates":[35.9219687,31.9579387]}},{"type":"Feature","properties":{"city":"Al Quwayrah","country":"Jordan"},"geometry":{"type":"Point","coordinates":[35.4076008,29.555872]}},{"type":"Feature","properties":{"city":"Jericho","country":"Palestine"},"geometry":{"type":"Point","coordinates":[35.5777848,31.7666681]}},{"type":"Feature","properties":{"city":"Al Jizah","country":"Jordan"},"geometry":{"type":"Point","coordinates":[35.9864651,31.7223312]}},{"type":"Feature","properties":{"city":"Patong","country":"Thailand"},"geometry":{"type":"Point","coordinates":[98.300215,7.895238]}},{"type":"Feature","properties":{"city":"Ban Phru Nai","country":"Thailand"},"geometry":{"type":"Point","coordinates":[98.766163,7.739218]}},{"type":"Feature","properties":{"city":"Ban Ao Nang","country":"Thailand"},"geometry":{"type":"Point","coordinates":[98.8425674,8.013442]}},{"type":"Feature","properties":{"city":"Ko Pha-Ngan","country":"Thailand"},"geometry":{"type":"Point","coordinates":[100.0674896,9.6765069]}},{"type":"Feature","properties":{"city":"Phunphin","country":"Thailand"},"geometry":{"type":"Point","coordinates":[99.2289481,9.1056172]}},{"type":"Feature","properties":{"city":"Chaiya","country":"Thailand"},"geometry":{"type":"Point","coordinates":[99.1741411,9.3585582]}},{"type":"Feature","properties":{"city":"Khlong San","country":"Thailand"},"geometry":{"type":"Point","coordinates":[100.5010209,13.71816]}},{"type":"Feature","properties":{"city":"Yan Nawa","country":"Thailand"},"geometry":{"type":"Point","coordinates":[100.534128,13.699914]}},{"type":"Feature","properties":{"city":"Phra Nakhon","country":"Thailand"},"geometry":{"type":"Point","coordinates":[100.4968128,13.7632304]}},{"type":"Feature","properties":{"city":"Bangkok","country":"Thailand"},"geometry":{"type":"Point","coordinates":[100.5031597,13.7515562]}},{"type":"Feature","properties":{"city":"Bang Sue","country":"Thailand"},"geometry":{"type":"Point","coordinates":[100.5399431,13.8043718]}},{"type":"Feature","properties":{"city":"Chiang Mai","country":"Thailand"},"geometry":{"type":"Point","coordinates":[98.98204,18.79351]}},{"type":"Feature","properties":{"city":"Pai","country":"Thailand"},"geometry":{"type":"Point","coordinates":[98.448971,19.3605559]}},{"type":"Feature","properties":{"city":"Lat Krabang","country":"Thailand"},"geometry":{"type":"Point","coordinates":[100.7468694,13.6818969]}},{"type":"Feature","properties":{"city":"Paris","country":"France"},"geometry":{"type":"Point","coordinates":[2.3528515,48.841884]}},{"type":"Feature","properties":{"city":"Zaventem","country":"Belgium"},"geometry":{"type":"Point","coordinates":[4.4855744,50.900999]}},{"type":"Feature","properties":{"city":"Lisbon","country":"Portugal"},"geometry":{"type":"Point","coordinates":[-9.1414211,38.7146024]}},{"type":"Feature","properties":{"city":"Ericeira","country":"Portugal"},"geometry":{"type":"Point","coordinates":[-9.4146456,38.9649046]}},{"type":"Feature","properties":{"city":"Porto","country":"Portugal"},"geometry":{"type":"Point","coordinates":[-8.6148911,41.1496677]}},{"type":"Feature","properties":{"city":"Madrid","country":"Spain"},"geometry":{"type":"Point","coordinates":[-3.7080784,40.4206776]}},{"type":"Feature","properties":{"city":"Barcelona","country":"Spain"},"geometry":{"type":"Point","coordinates":[2.157868,41.3935144]}},{"type":"Feature","properties":{"city":"Marseille 02","country":"France"},"geometry":{"type":"Point","coordinates":[5.3715545,43.2915997]}},{"type":"Feature","properties":{"city":"Beaulieu-sur-Mer","country":"France"},"geometry":{"type":"Point","coordinates":[7.3289363,43.705474]}},{"type":"Feature","properties":{"city":"Gordes","country":"France"},"geometry":{"type":"Point","coordinates":[5.2073186,43.9159022]}},{"type":"Feature","properties":{"city":"Cabries","country":"France"},"geometry":{"type":"Point","coordinates":[5.3660171,43.4816283]}},{"type":"Feature","properties":{"city":"Marignane","country":"France"},"geometry":{"type":"Point","coordinates":[5.214414,43.4384235]}},{"type":"Feature","properties":{"city":"London","country":"United Kingdom"},"geometry":{"type":"Point","coordinates":[-0.1892242,51.4956798]}},{"type":"Feature","properties":{"city":"Le Pre-Saint-Gervais","country":"France"},"geometry":{"type":"Point","coordinates":[2.3790032,48.8885045]}},{"type":"Feature","properties":{"city":"Bordeaux","country":"France"},"geometry":{"type":"Point","coordinates":[-0.5728,44.8413]}},{"type":"Feature","properties":{"city":"Capbreton","country":"France"},"geometry":{"type":"Point","coordinates":[-1.4400894,43.6569984]}},{"type":"Feature","properties":{"city":"Zarautz","country":"Spain"},"geometry":{"type":"Point","coordinates":[-2.1745568,43.2865091]}},{"type":"Feature","properties":{"city":"San Sebastian","country":"Spain"},"geometry":{"type":"Point","coordinates":[-1.9664675,43.3070979]}},{"type":"Feature","properties":{"city":"Bilbao","country":"Spain"},"geometry":{"type":"Point","coordinates":[-2.931641,43.2668825]}},{"type":"Feature","properties":{"city":"Santander","country":"Spain"},"geometry":{"type":"Point","coordinates":[-3.7204592,43.4620657]}},{"type":"Feature","properties":{"city":"Cadiz","country":"Spain"},"geometry":{"type":"Point","coordinates":[-6.2961478,36.5316834]}},{"type":"Feature","properties":{"city":"Tarifa","country":"Spain"},"geometry":{"type":"Point","coordinates":[-5.607229,36.0141679]}},{"type":"Feature","properties":{"city":"Zahara de los Atunes","country":"Spain"},"geometry":{"type":"Point","coordinates":[-5.7522424,36.0732674]}},{"type":"Feature","properties":{"city":"Tangier","country":"Morocco"},"geometry":{"type":"Point","coordinates":[-5.8102123,35.7871512]}},{"type":"Feature","properties":{"city":"Chefchaouene","country":"Morocco"},"geometry":{"type":"Point","coordinates":[-5.2631924,35.1680392]}},{"type":"Feature","properties":{"city":"Taghazout","country":"Morocco"},"geometry":{"type":"Point","coordinates":[-9.7627039,31.5032461]}},{"type":"Feature","properties":{"city":"Inezgane","country":"Morocco"},"geometry":{"type":"Point","coordinates":[-9.4102859,30.3299288]}},{"type":"Feature","properties":{"city":"Bethnal Green","country":"United Kingdom"},"geometry":{"type":"Point","coordinates":[-0.068171,51.5105056]}},{"type":"Feature","properties":{"city":"Colchester","country":"United Kingdom"},"geometry":{"type":"Point","coordinates":[0.900361,51.8896179]}},{"type":"Feature","properties":{"city":"Great Yarmouth","country":"United Kingdom"},"geometry":{"type":"Point","coordinates":[1.7385548,52.6035422]}},{"type":"Feature","properties":{"city":"Chalford","country":"United Kingdom"},"geometry":{"type":"Point","coordinates":[-2.1420017,51.6856541]}},{"type":"Feature","properties":{"city":"Newquay","country":"United Kingdom"},"geometry":{"type":"Point","coordinates":[-5.0718904,50.4160978]}},{"type":"Feature","properties":{"city":"Barbican","country":"United Kingdom"},"geometry":{"type":"Point","coordinates":[-0.0850191,51.5204443]}},{"type":"Feature","properties":{"city":"Amsterdam","country":"Netherlands"},"geometry":{"type":"Point","coordinates":[4.9037391,52.3842275]}},{"type":"Feature","properties":{"city":"Zaandam","country":"Netherlands"},"geometry":{"type":"Point","coordinates":[4.838888,52.3890675]}},{"type":"Feature","properties":{"city":"Copenhagen","country":"Denmark"},"geometry":{"type":"Point","coordinates":[12.5597543,55.6763388]}},{"type":"Feature","properties":{"city":"Stockholm","country":"Sweden"},"geometry":{"type":"Point","coordinates":[18.0507247,59.335854]}},{"type":"Feature","properties":{"city":"Tallinn","country":"Estonia"},"geometry":{"type":"Point","coordinates":[24.7451093,59.4390924]}},{"type":"Feature","properties":{"city":"Warsaw","country":"Poland"},"geometry":{"type":"Point","coordinates":[21.0138841,52.2450239]}},{"type":"Feature","properties":{"city":"Krakow","country":"Poland"},"geometry":{"type":"Point","coordinates":[19.940887,50.0639739]}},{"type":"Feature","properties":{"city":"Prague","country":"Czech Republic"},"geometry":{"type":"Point","coordinates":[14.4338026,50.0870481]}},{"type":"Feature","properties":{"city":"Vienna","country":"Austria"},"geometry":{"type":"Point","coordinates":[16.3354167,48.1934214]}},{"type":"Feature","properties":{"city":"Mestre","country":"Italy"},"geometry":{"type":"Point","coordinates":[12.2333482,45.4834397]}},{"type":"Feature","properties":{"city":"Florence","country":"Italy"},"geometry":{"type":"Point","coordinates":[11.24205,43.7841812]}},{"type":"Feature","properties":{"city":"Scandicci","country":"Italy"},"geometry":{"type":"Point","coordinates":[11.1723351,43.7547853]}},{"type":"Feature","properties":{"city":"Rome","country":"Italy"},"geometry":{"type":"Point","coordinates":[12.4971382,41.8955293]}},{"type":"Feature","properties":{"city":"Turin","country":"Italy"},"geometry":{"type":"Point","coordinates":[7.6857022,45.0762812]}},{"type":"Feature","properties":{"city":"Lyon","country":"France"},"geometry":{"type":"Point","coordinates":[4.8428045,45.7512135]}},{"type":"Feature","properties":{"city":"Balaguer","country":"Spain"},"geometry":{"type":"Point","coordinates":[0.8104571,41.7912508]}},{"type":"Feature","properties":{"city":"la Massana","country":"Andorra"},"geometry":{"type":"Point","coordinates":[1.5136961,42.5470391]}},{"type":"Feature","properties":{"city":"Granada","country":"Spain"},"geometry":{"type":"Point","coordinates":[-3.603301,37.1781753]}},{"type":"Feature","properties":{"city":"Malaga","country":"Spain"},"geometry":{"type":"Point","coordinates":[-4.4238559,36.7179303]}},{"type":"Feature","properties":{"city":"Rabat","country":"Morocco"},"geometry":{"type":"Point","coordinates":[-6.8322254,34.0169172]}},{"type":"Feature","properties":{"city":"Marrakesh","country":"Morocco"},"geometry":{"type":"Point","coordinates":[-7.9858837,31.6290411]}},{"type":"Feature","properties":{"city":"Camden Town","country":"United Kingdom"},"geometry":{"type":"Point","coordinates":[-0.139639,51.536023]}},{"type":"Feature","properties":{"city":"West Drayton","country":"United Kingdom"},"geometry":{"type":"Point","coordinates":[-0.4542955,51.4700223]}},{"type":"Feature","properties":{"city":"Andradina","country":"Brazil"},"geometry":{"type":"Point","coordinates":[-51.2632352,-20.8639536]}},{"type":"Feature","properties":{"city":"Vila Velha","country":"Brazil"},"geometry":{"type":"Point","coordinates":[-40.2940323,-20.2908334]}},{"type":"Feature","properties":{"city":"Ibiracu","country":"Brazil"},"geometry":{"type":"Point","coordinates":[-40.3793409,-19.8308939]}},{"type":"Feature","properties":{"city":"Sevilla","country":"Spain"},"geometry":{"type":"Point","coordinates":[-5.9900295,37.3855085]}},{"type":"Feature","properties":{"city":"Torroella de Montgri","country":"Spain"},"geometry":{"type":"Point","coordinates":[3.194944,42.048526]}},{"type":"Feature","properties":{"city":"Girona","country":"Spain"},"geometry":{"type":"Point","coordinates":[2.812721,41.976065]}},{"type":"Feature","properties":{"city":"Montornes del Valles","country":"Spain"},"geometry":{"type":"Point","coordinates":[2.2824077,41.5661872]}},{"type":"Feature","properties":{"city":"Cornella de Llobregat","country":"Spain"},"geometry":{"type":"Point","coordinates":[2.078892,41.351839]}},{"type":"Feature","properties":{"city":"Valencia","country":"Spain"},"geometry":{"type":"Point","coordinates":[-0.3700683,39.4578992]}},{"type":"Feature","properties":{"city":"Montpellier","country":"France"},"geometry":{"type":"Point","coordinates":[3.87759,43.6058666]}},{"type":"Feature","properties":{"city":"Milano","country":"Italy"},"geometry":{"type":"Point","coordinates":[9.1668972,45.4497584]}},{"type":"Feature","properties":{"city":"Stuttgart","country":"Germany"},"geometry":{"type":"Point","coordinates":[9.1914938,48.7933066]}},{"type":"Feature","properties":{"city":"Kehl","country":"Germany"},"geometry":{"type":"Point","coordinates":[7.7997279,48.5658662]}},{"type":"Feature","properties":{"city":"Cologne","country":"Germany"},"geometry":{"type":"Point","coordinates":[6.9255753,50.9462907]}},{"type":"Feature","properties":{"city":"Brussels","country":"Belgium"},"geometry":{"type":"Point","coordinates":[4.353134,50.8456313]}},{"type":"Feature","properties":{"city":"Antwerpen","country":"Belgium"},"geometry":{"type":"Point","coordinates":[4.416947,51.2205122]}},{"type":"Feature","properties":{"city":"Gent","country":"Belgium"},"geometry":{"type":"Point","coordinates":[3.7198638,51.053932]}},{"type":"Feature","properties":{"city":"Rotterdam","country":"Netherlands"},"geometry":{"type":"Point","coordinates":[4.4655549,51.9215096]}},{"type":"Feature","properties":{"city":"Berlin","country":"Germany"},"geometry":{"type":"Point","coordinates":[13.46225,52.5086781]}},{"type":"Feature","properties":{"city":"Leipzig","country":"Germany"},"geometry":{"type":"Point","coordinates":[12.3260208,51.3357765]}},{"type":"Feature","properties":{"city":"Zuerich (Kreis 1) / Lindenhof","country":"Switzerland"},"geometry":{"type":"Point","coordinates":[8.5402517,47.3781458]}},{"type":"Feature","properties":{"city":"Zuerich (Kreis 2)","country":"Switzerland"},"geometry":{"type":"Point","coordinates":[8.5201208,47.3416043]}},{"type":"Feature","properties":{"city":"Interlaken","country":"Switzerland"},"geometry":{"type":"Point","coordinates":[7.8638989,46.6813445]}},{"type":"Feature","properties":{"city":"San Teodoro","country":"Italy"},"geometry":{"type":"Point","coordinates":[8.9394694,44.4051876]}},{"type":"Feature","properties":{"city":"Oliana","country":"Spain"},"geometry":{"type":"Point","coordinates":[1.3121268,42.0594135]}},{"type":"Feature","properties":{"city":"Tavernes Blanques","country":"Spain"},"geometry":{"type":"Point","coordinates":[-0.3622162,39.4852793]}},{"type":"Feature","properties":{"city":"Alboraya","country":"Spain"},"geometry":{"type":"Point","coordinates":[-0.3389213,39.4718255]}},{"type":"Feature","properties":{"city":"la Seu d'Urgell","country":"Spain"},"geometry":{"type":"Point","coordinates":[1.4557596,42.3600594]}},{"type":"Feature","properties":{"city":"Toulouse","country":"France"},"geometry":{"type":"Point","coordinates":[1.4382063,43.6090705]}},{"type":"Feature","properties":{"city":"Tarbes","country":"France"},"geometry":{"type":"Point","coordinates":[0.0732331,43.2530694]}},{"type":"Feature","properties":{"city":"Bayonne","country":"France"},"geometry":{"type":"Point","coordinates":[-1.4687528,43.4953496]}},{"type":"Feature","properties":{"city":"Hendaye","country":"France"},"geometry":{"type":"Point","coordinates":[-1.7401042,43.3728528]}},{"type":"Feature","properties":{"city":"Perpignan","country":"France"},"geometry":{"type":"Point","coordinates":[2.8840179,42.7009389]}},{"type":"Feature","properties":{"city":"les Corts","country":"Spain"},"geometry":{"type":"Point","coordinates":[2.1087054,41.3877278]}},{"type":"Feature","properties":{"city":"Esplugues de Llobregat","country":"Spain"},"geometry":{"type":"Point","coordinates":[2.106331,41.3865102]}},{"type":"Feature","properties":{"city":"Grenoble","country":"France"},"geometry":{"type":"Point","coordinates":[5.7044004,45.1525439]}},{"type":"Feature","properties":{"city":"Freiburg","country":"Germany"},"geometry":{"type":"Point","coordinates":[7.8582208,47.9921479]}},{"type":"Feature","properties":{"city":"Hamburg","country":"Germany"},"geometry":{"type":"Point","coordinates":[10.0228017,53.5506618]}},{"type":"Feature","properties":{"city":"Aachen","country":"Germany"},"geometry":{"type":"Point","coordinates":[6.226666,50.7687357]}},{"type":"Feature","properties":{"city":"El Prat de Llobregat","country":"Spain"},"geometry":{"type":"Point","coordinates":[2.0800095,41.2983405]}},{"type":"Feature","properties":{"city":"Frederiksberg","country":"Denmark"},"geometry":{"type":"Point","coordinates":[12.5384071,55.7033185]}},{"type":"Feature","properties":{"city":"Malmoe","country":"Sweden"},"geometry":{"type":"Point","coordinates":[13.0214951,55.5942676]}},{"type":"Feature","properties":{"city":"Goeteborg","country":"Sweden"},"geometry":{"type":"Point","coordinates":[11.9478198,57.6925677]}},{"type":"Feature","properties":{"city":"Majorna","country":"Sweden"},"geometry":{"type":"Point","coordinates":[11.9376152,57.6992079]}},{"type":"Feature","properties":{"city":"Oslo","country":"Norway"},"geometry":{"type":"Point","coordinates":[10.7669703,59.9274457]}},{"type":"Feature","properties":{"city":"Ventspils","country":"Latvia"},"geometry":{"type":"Point","coordinates":[21.5621799,57.3946373]}},{"type":"Feature","properties":{"city":"Riga","country":"Latvia"},"geometry":{"type":"Point","coordinates":[24.1129831,56.9469469]}},{"type":"Feature","properties":{"city":"Naujamiestis","country":"Lithuania"},"geometry":{"type":"Point","coordinates":[25.2658825,54.6792365]}},{"type":"Feature","properties":{"city":"Vilnius","country":"Lithuania"},"geometry":{"type":"Point","coordinates":[25.2849759,54.6870228]}},{"type":"Feature","properties":{"city":"Palanga","country":"Lithuania"},"geometry":{"type":"Point","coordinates":[21.0637772,55.8785562]}},{"type":"Feature","properties":{"city":"Klaipeda","country":"Lithuania"},"geometry":{"type":"Point","coordinates":[21.0706368,55.8016836]}},{"type":"Feature","properties":{"city":"Nida","country":"Lithuania"},"geometry":{"type":"Point","coordinates":[20.9823551,55.2988891]}},{"type":"Feature","properties":{"city":"Rasos","country":"Lithuania"},"geometry":{"type":"Point","coordinates":[25.3022312,54.6777917]}},{"type":"Feature","properties":{"city":"Bratislava","country":"Slovakia"},"geometry":{"type":"Point","coordinates":[17.1095561,48.1461797]}},{"type":"Feature","properties":{"city":"Budapest XI. keruelet","country":"Hungary"},"geometry":{"type":"Point","coordinates":[19.0305639,47.4737583]}},{"type":"Feature","properties":{"city":"Bucuresti","country":"Romania"},"geometry":{"type":"Point","coordinates":[26.0988267,44.4219871]}},{"type":"Feature","properties":{"city":"Sozopol","country":"Bulgaria"},"geometry":{"type":"Point","coordinates":[27.6944646,42.4230759]}},{"type":"Feature","properties":{"city":"Burgas","country":"Bulgaria"},"geometry":{"type":"Point","coordinates":[27.4737116,42.4903555]}},{"type":"Feature","properties":{"city":"Sofia","country":"Bulgaria"},"geometry":{"type":"Point","coordinates":[23.3146523,42.6947258]}},{"type":"Feature","properties":{"city":"Sykies","country":"Greece"},"geometry":{"type":"Point","coordinates":[22.9442705,40.6441435]}},{"type":"Feature","properties":{"city":"Kalampaka","country":"Greece"},"geometry":{"type":"Point","coordinates":[21.6274958,39.7046991]}},{"type":"Feature","properties":{"city":"Athens","country":"Greece"},"geometry":{"type":"Point","coordinates":[23.7246497,37.981967]}},{"type":"Feature","properties":{"city":"Chania","country":"Greece"},"geometry":{"type":"Point","coordinates":[24.0264449,35.5145642]}},{"type":"Feature","properties":{"city":"Daratsos","country":"Greece"},"geometry":{"type":"Point","coordinates":[23.9791953,35.5117268]}},{"type":"Feature","properties":{"city":"Rethymno","country":"Greece"},"geometry":{"type":"Point","coordinates":[24.4751845,35.367396]}},{"type":"Feature","properties":{"city":"San Giljan","country":"Malta"},"geometry":{"type":"Point","coordinates":[14.4901025,35.9137634]}},{"type":"Feature","properties":{"city":"Luqa","country":"Malta"},"geometry":{"type":"Point","coordinates":[14.4863361,35.8517424]}},{"type":"Feature","properties":{"city":"Catania","country":"Italy"},"geometry":{"type":"Point","coordinates":[15.0855852,37.5135548]}},{"type":"Feature","properties":{"city":"Palermo","country":"Italy"},"geometry":{"type":"Point","coordinates":[13.3654452,38.123362]}},{"type":"Feature","properties":{"city":"Napoli","country":"Italy"},"geometry":{"type":"Point","coordinates":[14.2499446,40.8456382]}},{"type":"Feature","properties":{"city":"Ercolano","country":"Italy"},"geometry":{"type":"Point","coordinates":[14.3550763,40.7948613]}},{"type":"Feature","properties":{"city":"Split","country":"Croatia"},"geometry":{"type":"Point","coordinates":[16.4441704,43.5065932]}},{"type":"Feature","properties":{"city":"Izacic","country":"Bosnia and Herzegovina"},"geometry":{"type":"Point","coordinates":[15.7023955,44.7478618]}},{"type":"Feature","properties":{"city":"Jezerce","country":"Croatia"},"geometry":{"type":"Point","coordinates":[15.5820119,44.8653966]}},{"type":"Feature","properties":{"city":"Zagreb - Centar","country":"Croatia"},"geometry":{"type":"Point","coordinates":[15.9643304,45.8119565]}},{"type":"Feature","properties":{"city":"Stari Grad","country":"Serbia"},"geometry":{"type":"Point","coordinates":[20.4637293,44.8173921]}},{"type":"Feature","properties":{"city":"Mostar","country":"Bosnia and Herzegovina"},"geometry":{"type":"Point","coordinates":[17.8119201,43.3460506]}},{"type":"Feature","properties":{"city":"Kotor","country":"Montenegro"},"geometry":{"type":"Point","coordinates":[18.771718,42.4233069]}}]}