{"type":"FeatureCollection", "features": [
{"type":"Feature","geometry":{"type":"Polygon","coordinates":[[[178.13,-17.5],[177.67,-17.38],[177.38,-18.16],[178.55,-18.15],[178.13,-17.5]]]},"properties":{"NAME":"Fiji","ISO2":"FJ","CONTINENT":"Oceania"}},
{"type":"Feature","geometry":{"type":"Polygon","coordinates":[[[33.9,-0.95],[30.42,-1.13],[30.47,-2.41],[29.34,-4.5],[30.74,-8.34],[32.76,-9.23],[34.56,-11.52],[40.32,-10.32],[39.19,-8.49],[39.2,-4.68],[33.9,-0.95]]]},"properties":{"NAME":"Tanzania","ISO2":"TZ","CONTINENT":"Africa"}},
{"type":"Feature","geometry":{"type":"Polygon","coordinates":[[[-8.67,27.66],[-11.39,26.88],[-14.75,21.5],[-17.02,21.42],[-17.06,21],[-12.93,21.33],[-11.97,25.93],[-8.68,27.4],[-8.67,27.66]]]},"properties":{"NAME":"W. Sahara","ISO2":"EH","CONTINENT":"Africa"}},
{"type":"Feature","geometry":{"type":"MultiPolygon","coordinates":[[[[-122.84,49],[-107.05,49],[-95.16,49],[-88.38,48.3],[-82.55,45.35],[-82.44,41.68],[-71.51,45.01],[-67.14,45.14],[-64.47,46.24],[-65.06,49.23],[-60.03,50.24],[-55.68,52.15],[-59.57,55.2],[-64.58,60.34],[-78.11,62.32],[-78.52,58.8],[-76.54,56.53],[-82.27,55.15],[-90.9,57.28],[-94.63,60.11],[-93.16,62.02],[-81.39,67.11],[-88.02,68.62],[-95.21,71.92],[-98.44,67.78],[-109.95,67.98],[-127.45,70.38],[-136.5,68.9],[-140.99,69.71],[-141,60.31],[-135.48,59.79],[-130.54,54.8],[-127.44,50.83],[-122.84,49]]],[[[-55.6,51.32],[-59.27,47.6],[-53.07,46.66],[-55.6,51.32]]],[[[-78.77,72.35],[-72.65,67.28],[-77.9,65.31],[-66.17,61.93],[-62.16,66.16],[-66.97,69.19],[-78.77,72.35]]],[[[-106.52,73.08],[-119.4,71.56],[-113.31,68.54],[-105.96,69.18],[-106.52,73.08]]],[[[-91.59,81.89],[-80.56,76.18],[-61.89,82.36],[-91.59,81.89]]]]},"properties":{"NAME":"Canada","ISO2":"CA","CONTINENT":"North America"}},
{"type":"Feature","geometry":{"type":"MultiPolygon","coordinates":[[[[-122.84,49],[-124.69,48.18],[-123.73,38.95],[-120.37,34.45],[-117.13,32.54],[-111.02,31.33],[-106.51,31.75],[-104.46,29.57],[-100.96,29.38],[-97.53,25.84],[-94.69,29.48],[-89.18,30.32],[-83.71,29.94],[-81.49,30.73],[-75.73,35.55],[-73.98,40.63],[-70.64,41.48],[-67.14,45.14],[-71.51,45.01],[-82.44,41.68],[-82.55,45.35],[-88.38,48.3],[-95.16,49],[-107.05,49],[-122.84,49]]],[[[-140.99,69.71],[-161.91,70.33],[-168.11,65.67],[-166.12,61.5],[-157.72,57.57],[-148.02,59.98],[-134.08,58.12],[-130.54,54.8],[-135.48,59.79],[-141,60.31],[-140.99,69.71]]]]},"properties":{"NAME":"United States of America","ISO2":"US","CONTINENT":"North America"}},
{"type":"Feature","geometry":{"type":"Polygon","coordinates":[[[87.36,49.21],[80.04,50.86],[76.53,54.18],[69.07,55.39],[61.44,54.01],[59.97,51.96],[55.72,50.62],[50.77,51.69],[46.47,48.39],[49.1,46.4],[52.5,41.78],[55.97,41.31],[55.93,45],[58.5,45.59],[62.01,43.5],[64.9,43.73],[66.71,41.17],[70.96,42.27],[74.21,43.3],[80.26,42.35],[79.97,44.92],[85.16,47],[87.36,49.21]]]},"properties":{"NAME":"Kazakhstan","ISO2":"KZ","CONTINENT":"Asia"}},
{"type":"Feature","geometry":{"type":"Polygon","coordinates":[[[55.97,41.31],[60.08,41.43],[66.52,37.36],[67.83,37.14],[71.01,40.24],[70.96,42.27],[66.71,41.17],[64.9,43.73],[62.01,43.5],[58.5,45.59],[55.93,45],[55.97,41.31]]]},"properties":{"NAME":"Uzbekistan","ISO2":"UZ","CONTINENT":"Asia"}},
{"type":"Feature","geometry":{"type":"Polygon","coordinates":[[[141,-2.6],[141.03,-9.12],[144.74,-7.63],[144.58,-3.86],[141,-2.6]]]},"properties":{"NAME":"Papua New Guinea","ISO2":"PG","CONTINENT":"Oceania"}},
{"type":"Feature","geometry":{"type":"MultiPolygon","coordinates":[[[[141,-2.6],[138.33,-1.7],[134.42,-2.77],[137.93,-5.39],[141.03,-9.12],[141,-2.6]]],[[[117.88,4.14],[115.87,4.31],[114.62,1.43],[110.51,0.77],[109.66,2.01],[109.09,-0.46],[110.22,-2.93],[116,-3.66],[117.52,-0.8],[117.88,4.14]]],[[[104.37,-1.08],[101.66,2.08],[98.6,1.82],[102.58,-4.22],[105.82,-5.85],[106.11,-3.06],[104.37,-1.08]]]]},"properties":{"NAME":"Indonesia","ISO2":"ID","CONTINENT":"Asia"}},
{"type":"Feature","geometry":{"type":"Polygon","coordinates":[[[-57.63,-30.22],[-53.65,-26.92],[-54.63,-25.74],[-57.78,-25.16],[-62.69,-22.25],[-67.11,-22.74],[-70.54,-31.37],[-69.82,-34.19],[-71.12,-36.66],[-72.15,-42.25],[-71.55,-45.56],[-73.33,-50.38],[-68.57,-52.3],[-69.14,-50.73],[-65.64,-47.24],[-64.38,-42.87],[-56.79,-36.9],[-58.43,-33.91],[-57.63,-30.22]]]},"properties":{"NAME":"Argentina","ISO2":"AR","CONTINENT":"South America"}},
{"type":"Feature","geometry":{"type":"Polygon","coordinates":[[[-69.59,-17.58],[-70.37,-18.35],[-70.09,-21.39],[-71.44,-32.42],[-73.17,-37.12],[-74.69,-45.76],[-74.95,-52.26],[-68.57,-52.3],[-73.33,-50.38],[-71.55,-45.56],[-72.15,-42.25],[-71.12,-36.66],[-69.82,-34.19],[-70.54,-31.37],[-67.11,-22.74],[-69.59,-17.58]]]},"properties":{"NAME":"Chile","ISO2":"CL","CONTINENT":"South America"}},
{"type":"Feature","geometry":{"type":"Polygon","coordinates":[[[29.34,-4.5],[29.02,-2.84],[29.58,-1.34],[30.83,3.51],[27.37,5.23],[18.45,3.5],[17.52,-0.74],[14.58,-4.97],[13,-4.78],[12.18,-5.79],[12.32,-6.1],[16.33,-5.88],[17.47,-8.07],[21.73,-7.29],[22.16,-11.08],[23.91,-10.93],[28.16,-12.27],[28.73,-8.53],[30.74,-8.34],[29.34,-4.5]]]},"properties":{"NAME":"Dem. Rep. Congo","ISO2":"CD","CONTINENT":"Africa"}},
{"type":"Feature","geometry":{"type":"Polygon","coordinates":[[[41.59,-1.68],[46.56,2.86],[49.45,6.8],[51.05,10.64],[48.95,11.41],[47.79,8],[44.96,5],[41.86,3.92],[40.98,2.78],[41.59,-1.68]]]},"properties":{"NAME":"Somalia","ISO2":"SO","CONTINENT":"Africa"}},
{"type":"Feature","geometry":{"type":"Polygon","coordinates":[[[39.2,-4.68],[41.59,-1.68],[40.98,2.78],[41.86,3.92],[39.56,3.42],[35.3,5.51],[34.01,4.25],[35.04,1.91],[33.9,-0.95],[39.2,-4.68]]]},"properties":{"NAME":"Kenya","ISO2":"KE","CONTINENT":"Africa"}},
{"type":"Feature","geometry":{"type":"Polygon","coordinates":[[[24.57,8.23],[26.48,9.55],[31.35,9.81],[33.97,8.68],[36.43,14.42],[38.41,18],[36.87,22],[25,22],[23.84,19.58],[23.89,15.61],[22.04,12.96],[22.86,11.14],[24.57,8.23]]]},"properties":{"NAME":"Sudan","ISO2":"SD","CONTINENT":"Africa"}},
{"type":"Feature","geometry":{"type":"Polygon","coordinates":[[[23.84,19.58],[15.86,23.41],[14.85,22.86],[15.9,20.39],[14.5,12.86],[13.95,9.55],[15.28,7.42],[17.96,7.89],[22.86,11.14],[22.04,12.96],[23.89,15.61],[23.84,19.58]]]},"properties":{"NAME":"Chad","ISO2":"TD","CONTINENT":"Africa"}},
{"type":"Feature","geometry":{"type":"Polygon","coordinates":[[[-71.71,19.71],[-72.69,18.45],[-71.71,18.04],[-71.71,19.71]]]},"properties":{"NAME":"Haiti","ISO2":"HT","CONTINENT":"North America"}},
{"type":"Feature","geometry":{"type":"Polygon","coordinates":[[[-71.71,18.04],[-68.32,18.61],[-70.81,19.88],[-71.71,19.71],[-71.71,18.04]]]},"properties":{"NAME":"Dominican Rep.","ISO2":"DO","CONTINENT":"North America"}},
{"type":"Feature","geometry":{"type":"MultiPolygon","coordinates":[[[[49.1,46.4],[46.47,48.39],[50.77,51.69],[55.72,50.62],[59.97,51.96],[61.44,54.01],[69.07,55.39],[76.53,54.18],[80.04,50.86],[87.36,49.21],[87.75,49.3],[92.23,50.8],[97.26,49.73],[98.86,52.05],[103.68,50.09],[110.66,49.13],[116.68,49.89],[125.95,52.79],[127.66,49.76],[130.99,47.79],[135.03,48.48],[130.64,42.4],[130.78,42.22],[134.87,43.4],[140.06,48.45],[141.35,53.09],[135.13,54.73],[142.2,59.04],[151.27,58.78],[156.72,61.43],[160.12,60.54],[155.43,55.38],[156.79,51.01],[162.12,54.86],[163.54,59.87],[170.7,60.34],[179.37,62.98],[180,64.98],[180,68.96],[175.72,69.88],[160.94,69.44],[157.01,71.03],[140.47,72.85],[113.97,73.59],[111.08,76.71],[80.51,73.65],[69.94,73.04],[63.5,69.55],[53.72,68.86],[43.95,66.07],[31.1,69.56],[28.59,69.06],[31.14,62.36],[28.07,60.5],[27.98,59.48],[27.29,57.47],[28.18,56.17],[30.87,55.55],[31.79,52.1],[40.07,49.6],[38.22,47.1],[39.96,43.43],[46.4,41.86],[48.58,41.81],[46.68,44.61],[49.1,46.4]]],[[[22.73,54.33],[21.27,55.19],[19.66,54.43],[22.73,54.33]]]]},"properties":{"NAME":"Russia","ISO2":"RU","CONTINENT":"Europe"}},
{"type":"Feature","geometry":{"type":"Polygon","coordinates":[[[-78.19,25.21],[-78.41,24.58],[-77.54,24.34],[-77.89,25.17],[-78.19,25.21]]]},"properties":{"NAME":"Bahamas","ISO2":"BS","CONTINENT":"North America"}},
{"type":"Feature","geometry":{"type":"Polygon","coordinates":[[[-61.2,-51.85],[-60.7,-52.3],[-58.05,-51.9],[-60,-51.25],[-61.2,-51.85]]]},"properties":{"NAME":"Falkland Is.","ISO2":"FK","CONTINENT":"South America"}},
{"type":"Feature","geometry":{"type":"Polygon","coordinates":[[[31.1,69.56],[28.17,71.19],[19.18,69.82],[10.53,64.49],[4.99,61.97],[5.67,58.59],[11.03,58.86],[11.93,63.13],[16.77,68.01],[20.65,69.11],[28.59,69.06],[31.1,69.56]]]},"properties":{"NAME":"Norway","ISO2":"NO","CONTINENT":"Europe"}},
{"type":"Feature","geometry":{"type":"Polygon","coordinates":[[[-46.76,82.63],[-73.16,78.43],[-68.5,76.06],[-58.59,75.52],[-54,71.55],[-53.97,67.19],[-48.26,60.86],[-43.38,60.1],[-39.81,65.46],[-27.75,68.47],[-22.35,70.13],[-19.37,74.3],[-19.7,78.75],[-12.21,81.29],[-27.1,83.52],[-46.76,82.63]]]},"properties":{"NAME":"Greenland","ISO2":"GL","CONTINENT":"North America"}},
{"type":"Feature","geometry":{"type":"Polygon","coordinates":[[[124.97,-8.89],[125.09,-9.39],[126.97,-8.67],[126.64,-8.4],[124.97,-8.89]]]},"properties":{"NAME":"Timor-Leste","ISO2":"TL","CONTINENT":"Asia"}},
{"type":"Feature","geometry":{"type":"Polygon","coordinates":[[[16.34,-28.58],[19.62,-34.82],[28.22,-32.77],[32.46,-28.3],[32.83,-26.74],[32.07,-26.73],[30.69,-26.74],[31.04,-25.73],[31.84,-25.84],[31.19,-22.25],[29.43,-22.09],[25.66,-25.49],[19.9,-24.77],[19.89,-28.46],[16.34,-28.58]],[[28.98,-28.96],[28.85,-30.07],[27.75,-30.65],[27,-29.88],[28.98,-28.96]]]},"properties":{"NAME":"South Africa","ISO2":"ZA","CONTINENT":"Africa"}},
{"type":"Feature","geometry":{"type":"Polygon","coordinates":[[[28.98,-28.96],[27,-29.88],[27.75,-30.65],[28.85,-30.07],[28.98,-28.96]]]},"properties":{"NAME":"Lesotho","ISO2":"LS","CONTINENT":"Africa"}},
{"type":"Feature","geometry":{"type":"Polygon","coordinates":[[[-117.13,32.54],[-114.47,27.14],[-109.29,26.44],[-106.03,22.77],[-104.99,19.32],[-96.56,15.65],[-92.23,14.54],[-91,17.82],[-89.14,17.81],[-88.3,18.5],[-90.77,19.28],[-94.43,18.14],[-97.87,22.44],[-97.53,25.84],[-100.96,29.38],[-104.46,29.57],[-106.51,31.75],[-111.02,31.33],[-117.13,32.54]]]},"properties":{"NAME":"Mexico","ISO2":"MX","CONTINENT":"North America"}},
{"type":"Feature","geometry":{"type":"Polygon","coordinates":[[[-57.63,-30.22],[-58.43,-33.91],[-53.37,-33.77],[-53.79,-32.05],[-57.63,-30.22]]]},"properties":{"NAME":"Uruguay","ISO2":"UY","CONTINENT":"South America"}},
{"type":"Feature","geometry":{"type":"Polygon","coordinates":[[[-53.37,-33.77],[-48.89,-28.67],[-48.5,-25.88],[-46.47,-24.09],[-41.99,-22.97],[-39.76,-19.6],[-38.95,-13.79],[-35.13,-9],[-35.24,-5.46],[-39.98,-2.87],[-41.47,-2.91],[-48.62,-0.24],[-51.66,4.16],[-54.52,2.31],[-56.54,1.9],[-59.03,1.32],[-60.73,5.2],[-64.37,3.8],[-66.88,1.25],[-69.82,1.71],[-69.89,-4.3],[-72.89,-5.27],[-73.99,-7.52],[-72.18,-10.05],[-69.53,-10.95],[-65.4,-11.57],[-60.5,-13.78],[-58.24,-16.3],[-58.17,-20.18],[-55.61,-22.66],[-54.63,-25.74],[-53.65,-26.92],[-57.63,-30.22],[-53.79,-32.05],[-53.37,-33.77]]]},"properties":{"NAME":"Brazil","ISO2":"BR","CONTINENT":"South America"}},
{"type":"Feature","geometry":{"type":"Polygon","coordinates":[[[-69.53,-10.95],[-68.67,-12.56],[-69.59,-17.58],[-67.11,-22.74],[-62.69,-22.25],[-61.79,-19.63],[-58.17,-20.18],[-58.24,-16.3],[-60.5,-13.78],[-65.4,-11.57],[-69.53,-10.95]]]},"properties":{"NAME":"Bolivia","ISO2":"BO","CONTINENT":"South America"}},
{"type":"Feature","geometry":{"type":"Polygon","coordinates":[[[-69.89,-4.3],[-75.37,-0.15],[-77.84,-3],[-80.3,-3.4],[-79.76,-7.19],[-76.01,-14.65],[-70.37,-18.35],[-69.59,-17.58],[-68.67,-12.56],[-69.53,-10.95],[-72.18,-10.05],[-73.99,-7.52],[-72.89,-5.27],[-69.89,-4.3]]]},"properties":{"NAME":"Peru","ISO2":"PE","CONTINENT":"South America"}},
{"type":"Feature","geometry":{"type":"Polygon","coordinates":[[[-66.88,1.25],[-67.82,4.5],[-71.96,6.99],[-72.91,10.45],[-71.33,11.78],[-75.48,10.62],[-77.35,8.67],[-77.88,7.22],[-77.13,3.85],[-78.86,1.38],[-75.37,-0.15],[-69.89,-4.3],[-69.82,1.71],[-66.88,1.25]]]},"properties":{"NAME":"Colombia","ISO2":"CO","CONTINENT":"South America"}},
{"type":"Feature","geometry":{"type":"Polygon","coordinates":[[[-77.35,8.67],[-82.55,9.57],[-82.97,8.23],[-77.88,7.22],[-77.35,8.67]]]},"properties":{"NAME":"Panama","ISO2":"PA","CONTINENT":"North America"}},
{"type":"Feature","geometry":{"type":"Polygon","coordinates":[[[-82.55,9.57],[-83.66,10.94],[-85.71,11.09],[-82.97,8.23],[-82.55,9.57]]]},"properties":{"NAME":"Costa Rica","ISO2":"CR","CONTINENT":"North America"}},
{"type":"Feature","geometry":{"type":"Polygon","coordinates":[[[-83.66,10.94],[-83.15,15],[-87.32,12.98],[-85.71,11.09],[-83.66,10.94]]]},"properties":{"NAME":"Nicaragua","ISO2":"NI","CONTINENT":"North America"}},
{"type":"Feature","geometry":{"type":"Polygon","coordinates":[[[-83.15,15],[-88.23,15.73],[-89.35,14.42],[-87.79,13.38],[-87.32,12.98],[-83.15,15]]]},"properties":{"NAME":"Honduras","ISO2":"HN","CONTINENT":"North America"}},
{"type":"Feature","geometry":{"type":"Polygon","coordinates":[[[-89.35,14.42],[-90.1,13.74],[-87.79,13.38],[-89.35,14.42]]]},"properties":{"NAME":"El Salvador","ISO2":"SV","CONTINENT":"North America"}},
{"type":"Feature","geometry":{"type":"Polygon","coordinates":[[[-92.23,14.54],[-90.1,13.74],[-89.35,14.42],[-88.23,15.73],[-88.93,15.89],[-89.14,17.81],[-91,17.82],[-92.23,14.54]]]},"properties":{"NAME":"Guatemala","ISO2":"GT","CONTINENT":"North America"}},
{"type":"Feature","geometry":{"type":"Polygon","coordinates":[[[-89.14,17.81],[-88.93,15.89],[-88.3,18.5],[-89.14,17.81]]]},"properties":{"NAME":"Belize","ISO2":"BZ","CONTINENT":"North America"}},
{"type":"Feature","geometry":{"type":"Polygon","coordinates":[[[-60.73,5.2],[-59.76,8.37],[-62.73,10.42],[-68.19,10.55],[-71.33,11.78],[-72.91,10.45],[-71.96,6.99],[-67.82,4.5],[-66.88,1.25],[-64.37,3.8],[-60.73,5.2]]]},"properties":{"NAME":"Venezuela","ISO2":"VE","CONTINENT":"South America"}},
{"type":"Feature","geometry":{"type":"Polygon","coordinates":[[[-56.54,1.9],[-57.15,5.97],[-59.76,8.37],[-60.73,5.2],[-59.03,1.32],[-56.54,1.9]]]},"properties":{"NAME":"Guyana","ISO2":"GY","CONTINENT":"South America"}},
{"type":"Feature","geometry":{"type":"Polygon","coordinates":[[[-54.52,2.31],[-53.96,5.76],[-57.15,5.97],[-56.54,1.9],[-54.52,2.31]]]},"properties":{"NAME":"Suriname","ISO2":"SR","CONTINENT":"South America"}},
{"type":"Feature","geometry":{"type":"MultiPolygon","coordinates":[[[[-51.66,4.16],[-53.96,5.76],[-54.52,2.31],[-51.66,4.16]]],[[[6.19,49.46],[5.67,49.53],[2.51,51.15],[-2.96,47.57],[-1.9,43.42],[2.99,42.47],[7.44,43.69],[6.84,45.99],[7.47,47.62],[6.19,49.46]]]]},"properties":{"NAME":"France","ISO2":"FR","CONTINENT":"Europe"}},
{"type":"Feature","geometry":{"type":"Polygon","coordinates":[[[-75.37,-0.15],[-78.86,1.38],[-80.93,-1.06],[-80.3,-3.4],[-77.84,-3],[-75.37,-0.15]]]},"properties":{"NAME":"Ecuador","ISO2":"EC","CONTINENT":"South America"}},
{"type":"Feature","geometry":{"type":"Polygon","coordinates":[[[-66.28,18.51],[-67.1,18.52],[-67.18,17.95],[-65.85,17.98],[-66.28,18.51]]]},"properties":{"NAME":"Puerto Rico","ISO2":"PR","CONTINENT":"North America"}},
{"type":"Feature","geometry":{"type":"Polygon","coordinates":[[[-77.57,18.49],[-77.21,17.7],[-76.37,18.16],[-77.57,18.49]]]},"properties":{"NAME":"Jamaica","ISO2":"JM","CONTINENT":"North America"}},
{"type":"Feature","geometry":{"type":"Polygon","coordinates":[[[-82.27,23.19],[-81.82,22.19],[-78.72,21.6],[-77.76,19.86],[-76.52,21.21],[-78.35,22.51],[-82.27,23.19]]]},"properties":{"NAME":"Cuba","ISO2":"CU","CONTINENT":"North America"}},
{"type":"Feature","geometry":{"type":"Polygon","coordinates":[[[31.19,-22.25],[32.77,-19.72],[32.85,-16.71],[30.27,-15.51],[27.04,-17.94],[25.26,-17.74],[29.43,-22.09],[31.19,-22.25]]]},"properties":{"NAME":"Zimbabwe","ISO2":"ZW","CONTINENT":"Africa"}},
{"type":"Feature","geometry":{"type":"Polygon","coordinates":[[[29.43,-22.09],[25.26,-17.74],[25.08,-17.66],[20.91,-18.25],[19.9,-24.77],[25.66,-25.49],[29.43,-22.09]]]},"properties":{"NAME":"Botswana","ISO2":"BW","CONTINENT":"Africa"}},
{"type":"Feature","geometry":{"type":"Polygon","coordinates":[[[19.9,-24.77],[20.91,-18.25],[25.08,-17.66],[23.22,-17.52],[11.73,-17.3],[14.26,-22.11],[16.34,-28.58],[19.89,-28.46],[19.9,-24.77]]]},"properties":{"NAME":"Namibia","ISO2":"NA","CONTINENT":"Africa"}},
{"type":"Feature","geometry":{"type":"Polygon","coordinates":[[[-16.71,13.59],[-15.62,13.62],[-15.93,13.13],[-16.84,13.15],[-16.68,12.38],[-13.7,12.59],[-11.51,12.44],[-12.17,14.62],[-16.46,16.14],[-16.71,13.59]]]},"properties":{"NAME":"Senegal","ISO2":"SN","CONTINENT":"Africa"}},
{"type":"Feature","geometry":{"type":"Polygon","coordinates":[[[-11.51,12.44],[-8.03,10.21],[-5.4,10.37],[-2,14.56],[0.37,14.93],[3.64,15.57],[4.27,19.16],[-4.92,24.97],[-6.45,24.96],[-5.54,15.5],[-12.17,14.62],[-11.51,12.44]]]},"properties":{"NAME":"Mali","ISO2":"ML","CONTINENT":"Africa"}},
{"type":"Feature","geometry":{"type":"Polygon","coordinates":[[[-17.06,21],[-16.46,16.14],[-12.17,14.62],[-5.54,15.5],[-6.45,24.96],[-4.92,24.97],[-8.68,27.4],[-11.97,25.93],[-12.93,21.33],[-17.06,21]]]},"properties":{"NAME":"Mauritania","ISO2":"MR","CONTINENT":"Africa"}},
{"type":"Feature","geometry":{"type":"Polygon","coordinates":[[[2.69,6.26],[3.61,11.66],[2.15,11.94],[0.9,11],[1.87,6.14],[2.69,6.26]]]},"properties":{"NAME":"Benin","ISO2":"BJ","CONTINENT":"Africa"}},
{"type":"Feature","geometry":{"type":"Polygon","coordinates":[[[14.85,22.86],[12,23.47],[4.27,19.16],[3.64,15.57],[0.37,14.93],[2.15,11.94],[3.61,11.66],[4.37,13.75],[9.01,12.83],[14.18,12.48],[14.5,12.86],[15.9,20.39],[14.85,22.86]]]},"properties":{"NAME":"Niger","ISO2":"NE","CONTINENT":"Africa"}},
{"type":"Feature","geometry":{"type":"Polygon","coordinates":[[[2.69,6.26],[5.9,4.26],[8.5,4.77],[11.75,6.98],[14.18,12.48],[9.01,12.83],[4.37,13.75],[3.61,11.66],[2.69,6.26]]]},"properties":{"NAME":"Nigeria","ISO2":"NG","CONTINENT":"Africa"}},
{"type":"Feature","geometry":{"type":"Polygon","coordinates":[[[14.5,12.86],[14.18,12.48],[11.75,6.98],[8.5,4.77],[9.65,2.28],[11.28,2.26],[13.08,2.27],[16.01,2.27],[14.48,4.73],[15.28,7.42],[13.95,9.55],[14.5,12.86]]]},"properties":{"NAME":"Cameroon","ISO2":"CM","CONTINENT":"Africa"}},
{"type":"Feature","geometry":{"type":"Polygon","coordinates":[[[0.9,11],[0.02,11.02],[1.06,5.93],[1.87,6.14],[0.9,11]]]},"properties":{"NAME":"Togo","ISO2":"TG","CONTINENT":"Africa"}},
{"type":"Feature","geometry":{"type":"Polygon","coordinates":[[[0.02,11.02],[-2.83,9.64],[-2.86,4.99],[1.06,5.93],[0.02,11.02]]]},"properties":{"NAME":"Ghana","ISO2":"GH","CONTINENT":"Africa"}},
{"type":"Feature","geometry":{"type":"Polygon","coordinates":[[[-8.03,10.21],[-8.44,7.69],[-7.71,4.36],[-2.86,4.99],[-2.83,9.64],[-5.4,10.37],[-8.03,10.21]]]},"properties":{"NAME":"Côte d'Ivoire","ISO2":"CI","CONTINENT":"Africa"}},
{"type":"Feature","geometry":{"type":"Polygon","coordinates":[[[-13.7,12.59],[-15.13,11.04],[-13.25,8.9],[-10.23,8.41],[-8.44,7.69],[-8.03,10.21],[-11.51,12.44],[-13.7,12.59]]]},"properties":{"NAME":"Guinea","ISO2":"GN","CONTINENT":"Africa"}},
{"type":"Feature","geometry":{"type":"Polygon","coordinates":[[[-16.68,12.38],[-15.13,11.04],[-13.7,12.59],[-16.68,12.38]]]},"properties":{"NAME":"Guinea-Bissau","ISO2":"GW","CONTINENT":"Africa"}},
{"type":"Feature","geometry":{"type":"Polygon","coordinates":[[[-8.44,7.69],[-10.23,8.41],[-11.44,6.79],[-7.71,4.36],[-8.44,7.69]]]},"properties":{"NAME":"Liberia","ISO2":"LR","CONTINENT":"Africa"}},
{"type":"Feature","geometry":{"type":"Polygon","coordinates":[[[-13.25,8.9],[-11.44,6.79],[-10.23,8.41],[-13.25,8.9]]]},"properties":{"NAME":"Sierra Leone","ISO2":"SL","CONTINENT":"Africa"}},
{"type":"Feature","geometry":{"type":"Polygon","coordinates":[[[-5.4,10.37],[-2.83,9.64],[0.02,11.02],[0.9,11],[2.15,11.94],[0.37,14.93],[-2,14.56],[-5.4,10.37]]]},"properties":{"NAME":"Burkina Faso","ISO2":"BF","CONTINENT":"Africa"}},
{"type":"Feature","geometry":{"type":"Polygon","coordinates":[[[27.37,5.23],[24.57,8.23],[22.86,11.14],[17.96,7.89],[15.28,7.42],[14.48,4.73],[16.01,2.27],[18.45,3.5],[27.37,5.23]]]},"properties":{"NAME":"Central African Rep.","ISO2":"CF","CONTINENT":"Africa"}},
{"type":"Feature","geometry":{"type":"Polygon","coordinates":[[[18.45,3.5],[16.01,2.27],[13.08,2.27],[14.43,-1.33],[11.09,-3.98],[11.91,-5.04],[13,-4.78],[14.58,-4.97],[17.52,-0.74],[18.45,3.5]]]},"properties":{"NAME":"Congo","ISO2":"CG","CONTINENT":"Africa"}},
{"type":"Feature","geometry":{"type":"Polygon","coordinates":[[[11.28,2.26],[9.49,1.01],[8.8,-1.11],[11.09,-3.98],[14.43,-1.33],[13.08,2.27],[11.28,2.26]]]},"properties":{"NAME":"Gabon","ISO2":"GA","CONTINENT":"Africa"}},
{"type":"Feature","geometry":{"type":"Polygon","coordinates":[[[9.65,2.28],[9.49,1.01],[11.28,2.26],[9.65,2.28]]]},"properties":{"NAME":"Eq. Guinea","ISO2":"GQ","CONTINENT":"Africa"}},
{"type":"Feature","geometry":{"type":"Polygon","coordinates":[[[30.74,-8.34],[28.73,-8.53],[28.16,-12.27],[23.91,-10.93],[21.93,-12.9],[23.22,-17.52],[25.08,-17.66],[25.26,-17.74],[27.04,-17.94],[30.27,-15.51],[33.21,-13.97],[32.76,-9.23],[30.74,-8.34]]]},"properties":{"NAME":"Zambia","ISO2":"ZM","CONTINENT":"Africa"}},
{"type":"Feature","geometry":{"type":"Polygon","coordinates":[[[32.76,-9.23],[33.21,-13.97],[34.56,-11.52],[32.76,-9.23]]]},"properties":{"NAME":"Malawi","ISO2":"MW","CONTINENT":"Africa"}},
{"type":"Feature","geometry":{"type":"Polygon","coordinates":[[[34.56,-11.52],[33.21,-13.97],[30.27,-15.51],[32.85,-16.71],[32.77,-19.72],[31.19,-22.25],[31.84,-25.84],[32.07,-26.73],[32.83,-26.74],[35.46,-24.12],[34.79,-19.78],[39.45,-16.72],[40.78,-14.69],[40.32,-10.32],[34.56,-11.52]]]},"properties":{"NAME":"Mozambique","ISO2":"MZ","CONTINENT":"Africa"}},
{"type":"Feature","geometry":{"type":"Polygon","coordinates":[[[32.07,-26.73],[31.84,-25.84],[31.04,-25.73],[30.69,-26.74],[32.07,-26.73]]]},"properties":{"NAME":"eSwatini","ISO2":"SZ","CONTINENT":"Africa"}},
{"type":"Feature","geometry":{"type":"MultiPolygon","coordinates":[[[[13,-4.78],[11.91,-5.04],[12.18,-5.79],[13,-4.78]]],[[[12.32,-6.1],[13.63,-12.04],[11.73,-17.3],[23.22,-17.52],[21.93,-12.9],[23.91,-10.93],[22.16,-11.08],[21.73,-7.29],[17.47,-8.07],[16.33,-5.88],[12.32,-6.1]]]]},"properties":{"NAME":"Angola","ISO2":"AO","CONTINENT":"Africa"}},
{"type":"Feature","geometry":{"type":"Polygon","coordinates":[[[30.47,-2.41],[29.02,-2.84],[29.34,-4.5],[30.47,-2.41]]]},"properties":{"NAME":"Burundi","ISO2":"BI","CONTINENT":"Africa"}},
{"type":"Feature","geometry":{"type":"Polygon","coordinates":[[[35.72,32.71],[35.82,33.28],[35.13,33.09],[34.27,31.22],[34.82,29.76],[34.92,29.5],[35.4,31.49],[34.93,31.35],[35.18,32.53],[35.55,32.39],[35.72,32.71]]]},"properties":{"NAME":"Israel","ISO2":"IL","CONTINENT":"Asia"}},
{"type":"Feature","geometry":{"type":"Polygon","coordinates":[[[35.82,33.28],[36,34.64],[35.13,33.09],[35.82,33.28]]]},"properties":{"NAME":"Lebanon","ISO2":"LB","CONTINENT":"Asia"}},
{"type":"Feature","geometry":{"type":"Polygon","coordinates":[[[49.54,-12.47],[43.96,-17.41],[43.25,-22.06],[44.04,-24.99],[47.1,-24.94],[50.48,-15.23],[49.54,-12.47]]]},"properties":{"NAME":"Madagascar","ISO2":"MG","CONTINENT":"Africa"}},
{"type":"Feature","geometry":{"type":"Polygon","coordinates":[[[35.4,31.49],[35.55,32.39],[35.18,32.53],[34.93,31.35],[35.4,31.49]]]},"properties":{"NAME":"Palestine","ISO2":"PS","CONTINENT":"Asia"}},
{"type":"Feature","geometry":{"type":"Polygon","coordinates":[[[-16.71,13.59],[-16.84,13.15],[-15.93,13.13],[-15.62,13.62],[-16.71,13.59]]]},"properties":{"NAME":"Gambia","ISO2":"GM","CONTINENT":"Africa"}},
{"type":"Feature","geometry":{"type":"Polygon","coordinates":[[[9.48,30.31],[11.49,33.14],[10.94,35.7],[8.42,36.95],[7.61,33.34],[9.48,30.31]]]},"properties":{"NAME":"Tunisia","ISO2":"TN","CONTINENT":"Africa"}},
{"type":"Feature","geometry":{"type":"Polygon","coordinates":[[[-8.68,27.4],[-4.92,24.97],[4.27,19.16],[12,23.47],[10.3,24.38],[9.48,30.31],[7.61,33.34],[8.42,36.95],[1.47,36.61],[-2.17,35.17],[-1.31,32.26],[-8.67,27.66],[-8.68,27.4]]]},"properties":{"NAME":"Algeria","ISO2":"DZ","CONTINENT":"Africa"}},
{"type":"Feature","geometry":{"type":"Polygon","coordinates":[[[35.55,32.39],[35.4,31.49],[34.92,29.5],[34.96,29.36],[39.2,32.16],[38.79,33.38],[35.72,32.71],[35.55,32.39]]]},"properties":{"NAME":"Jordan","ISO2":"JO","CONTINENT":"Asia"}},
{"type":"Feature","geometry":{"type":"Polygon","coordinates":[[[51.58,24.25],[55.21,22.71],[56.4,24.92],[56.26,25.71],[56.07,26.06],[54.01,24.12],[51.58,24.25]]]},"properties":{"NAME":"United Arab Emirates","ISO2":"AE","CONTINENT":"Asia"}},
{"type":"Feature","geometry":{"type":"Polygon","coordinates":[[[50.81,24.75],[51.39,24.63],[51.59,25.8],[51.01,26.01],[50.81,24.75]]]},"properties":{"NAME":"Qatar","ISO2":"QA","CONTINENT":"Asia"}},
{"type":"Feature","geometry":{"type":"Polygon","coordinates":[[[47.97,29.98],[46.57,29.1],[48.42,28.55],[47.97,29.98]]]},"properties":{"NAME":"Kuwait","ISO2":"KW","CONTINENT":"Asia"}},
{"type":"Feature","geometry":{"type":"Polygon","coordinates":[[[39.2,32.16],[44.71,29.18],[46.57,29.1],[47.97,29.98],[48.57,29.93],[45.42,33.97],[44.77,37.17],[42.35,37.23],[38.79,33.38],[39.2,32.16]]]},"properties":{"NAME":"Iraq","ISO2":"IQ","CONTINENT":"Asia"}},
{"type":"Feature","geometry":{"type":"Polygon","coordinates":[[[55.21,22.71],[55,20],[52,19],[53.11,16.65],[57.79,19.07],[59.81,22.31],[56.4,24.92],[55.21,22.71]]]},"properties":{"NAME":"Oman","ISO2":"OM","CONTINENT":"Asia"}},
{"type":"Feature","geometry":{"type":"Polygon","coordinates":[[[166.79,-15.67],[167.27,-15.74],[167.11,-14.93],[166.63,-14.63],[166.79,-15.67]]]},"properties":{"NAME":"Vanuatu","ISO2":"VU","CONTINENT":"Oceania"}},
{"type":"Feature","geometry":{"type":"Polygon","coordinates":[[[102.58,12.19],[104.33,10.49],[107.49,12.34],[107.38,14.2],[105.22,14.27],[102.58,12.19]]]},"properties":{"NAME":"Cambodia","ISO2":"KH","CONTINENT":"Asia"}},
{"type":"Feature","geometry":{"type":"Polygon","coordinates":[[[105.22,14.27],[103.96,18.24],[100.12,20.42],[97.86,17.57],[99.59,11.89],[98.55,9.93],[100.09,6.46],[102.14,6.22],[99.15,9.96],[100.98,13.41],[102.58,12.19],[105.22,14.27]]]},"properties":{"NAME":"Thailand","ISO2":"TH","CONTINENT":"Asia"}},
{"type":"Feature","geometry":{"type":"Polygon","coordinates":[[[107.38,14.2],[104.44,20.76],[102.17,22.46],[101.18,21.44],[100.12,20.42],[103.96,18.24],[105.22,14.27],[107.38,14.2]]]},"properties":{"NAME":"Laos","ISO2":"LA","CONTINENT":"Asia"}},
{"type":"Feature","geometry":{"type":"Polygon","coordinates":[[[100.12,20.42],[101.18,21.44],[99.24,22.12],[98.68,27.51],[97.33,28.26],[95.12,26.57],[92.67,22.04],[92.37,20.67],[94.32,18.21],[97.16,16.93],[98.55,9.93],[99.59,11.89],[97.86,17.57],[100.12,20.42]]]},"properties":{"NAME":"Myanmar","ISO2":"MM","CONTINENT":"Asia"}},
{"type":"Feature","geometry":{"type":"Polygon","coordinates":[[[104.33,10.49],[105.16,8.6],[109.2,11.67],[108.88,15.28],[105.66,19.06],[108.05,21.55],[105.33,23.35],[102.17,22.46],[104.44,20.76],[107.38,14.2],[107.49,12.34],[104.33,10.49]]]},"properties":{"NAME":"Vietnam","ISO2":"VN","CONTINENT":"Asia"}},
{"type":"Feature","geometry":{"type":"Polygon","coordinates":[[[130.64,42.4],[124.27,39.93],[126.17,37.75],[128.35,38.61],[130.78,42.22],[130.64,42.4]]]},"properties":{"NAME":"North Korea","ISO2":"KP","CONTINENT":"Asia"}},
{"type":"Feature","geometry":{"type":"Polygon","coordinates":[[[126.17,37.75],[126.49,34.39],[129.09,35.08],[128.35,38.61],[126.17,37.75]]]},"properties":{"NAME":"South Korea","ISO2":"KR","CONTINENT":"Asia"}},
{"type":"Feature","geometry":{"type":"Polygon","coordinates":[[[87.75,49.3],[90.95,45.29],[96.35,42.73],[104.96,41.6],[109.24,42.52],[117.42,46.67],[116.68,49.89],[110.66,49.13],[103.68,50.09],[98.86,52.05],[97.26,49.73],[92.23,50.8],[87.75,49.3]]]},"properties":{"NAME":"Mongolia","ISO2":"MN","CONTINENT":"Asia"}},
{"type":"Feature","geometry":{"type":"Polygon","coordinates":[[[97.33,28.26],[94.57,29.28],[91.7,27.77],[88.81,27.3],[88.12,27.88],[85.25,26.73],[80.09,28.79],[81.11,30.18],[78.74,31.52],[77.84,35.49],[74.24,34.75],[74.42,30.98],[68.18,23.69],[70.47,20.88],[72.63,21.36],[73.53,15.99],[76.59,8.9],[79.86,10.36],[80.32,15.9],[89.03,22.06],[92.67,22.04],[95.12,26.57],[97.33,28.26]]]},"properties":{"NAME":"India","ISO2":"IN","CONTINENT":"Asia"}},
{"type":"Feature","geometry":{"type":"Polygon","coordinates":[[[92.67,22.04],[89.03,22.06],[92.37,20.67],[92.67,22.04]]]},"properties":{"NAME":"Bangladesh","ISO2":"BD","CONTINENT":"Asia"}},
{"type":"Feature","geometry":{"type":"Polygon","coordinates":[[[91.7,27.77],[90.02,28.3],[88.81,27.3],[91.7,27.77]]]},"properties":{"NAME":"Bhutan","ISO2":"BT","CONTINENT":"Asia"}},
{"type":"Feature","geometry":{"type":"Polygon","coordinates":[[[88.12,27.88],[81.11,30.18],[80.09,28.79],[85.25,26.73],[88.12,27.88]]]},"properties":{"NAME":"Nepal","ISO2":"NP","CONTINENT":"Asia"}},
{"type":"Feature","geometry":{"type":"Polygon","coordinates":[[[77.84,35.49],[75.16,37.13],[71.85,36.51],[68.93,31.62],[66.35,29.89],[60.87,29.83],[63.32,26.76],[61.5,25.08],[66.37,25.43],[68.18,23.69],[74.42,30.98],[74.24,34.75],[77.84,35.49]]]},"properties":{"NAME":"Pakistan","ISO2":"PK","CONTINENT":"Asia"}},
{"type":"Feature","geometry":{"type":"Polygon","coordinates":[[[66.52,37.36],[61.21,35.65],[60.87,29.83],[66.35,29.89],[68.93,31.62],[71.85,36.51],[75.16,37.13],[74.98,37.42],[67.83,37.14],[66.52,37.36]]]},"properties":{"NAME":"Afghanistan","ISO2":"AF","CONTINENT":"Asia"}},
{"type":"Feature","geometry":{"type":"Polygon","coordinates":[[[67.83,37.14],[74.98,37.42],[73.68,39.43],[71.01,40.24],[67.83,37.14]]]},"properties":{"NAME":"Tajikistan","ISO2":"TJ","CONTINENT":"Asia"}},
{"type":"Feature","geometry":{"type":"Polygon","coordinates":[[[70.96,42.27],[71.01,40.24],[73.68,39.43],[80.26,42.35],[74.21,43.3],[70.96,42.27]]]},"properties":{"NAME":"Kyrgyzstan","ISO2":"KG","CONTINENT":"Asia"}},
{"type":"Feature","geometry":{"type":"Polygon","coordinates":[[[52.5,41.78],[53.92,37.2],[59.23,37.41],[61.21,35.65],[66.52,37.36],[60.08,41.43],[55.97,41.31],[52.5,41.78]]]},"properties":{"NAME":"Turkmenistan","ISO2":"TM","CONTINENT":"Asia"}},
{"type":"Feature","geometry":{"type":"Polygon","coordinates":[[[48.57,29.93],[51.52,27.87],[57.4,25.74],[61.5,25.08],[63.32,26.76],[60.87,29.83],[61.21,35.65],[59.23,37.41],[53.92,37.2],[48.88,38.32],[46.51,38.77],[46.14,38.74],[44.79,39.71],[44.77,37.17],[45.42,33.97],[48.57,29.93]]]},"properties":{"NAME":"Iran","ISO2":"IR","CONTINENT":"Asia"}},
{"type":"Feature","geometry":{"type":"Polygon","coordinates":[[[35.72,32.71],[38.79,33.38],[42.35,37.23],[36.15,35.82],[36,34.64],[35.82,33.28],[35.72,32.71]]]},"properties":{"NAME":"Syria","ISO2":"SY","CONTINENT":"Asia"}},
{"type":"Feature","geometry":{"type":"Polygon","coordinates":[[[46.51,38.77],[44.97,41.25],[43.58,41.09],[44.79,39.71],[46.14,38.74],[46.51,38.77]]]},"properties":{"NAME":"Armenia","ISO2":"AM","CONTINENT":"Asia"}},
{"type":"Feature","geometry":{"type":"Polygon","coordinates":[[[11.03,58.86],[15.88,56.1],[18.79,60.08],[17.85,62.75],[23.9,66.01],[20.65,69.11],[16.77,68.01],[11.93,63.13],[11.03,58.86]]]},"properties":{"NAME":"Sweden","ISO2":"SE","CONTINENT":"Europe"}},
{"type":"Feature","geometry":{"type":"Polygon","coordinates":[[[28.18,56.17],[26.49,55.62],[23.48,53.91],[23.53,51.58],[31.79,52.1],[30.87,55.55],[28.18,56.17]]]},"properties":{"NAME":"Belarus","ISO2":"BY","CONTINENT":"Europe"}},
{"type":"Feature","geometry":{"type":"Polygon","coordinates":[[[31.79,52.1],[23.53,51.58],[22.56,49.09],[22.09,48.42],[22.71,47.88],[26.62,48.22],[29.12,47.85],[28.23,45.49],[29.6,45.29],[33.44,45.97],[35.01,45.74],[38.22,47.1],[40.07,49.6],[31.79,52.1]]]},"properties":{"NAME":"Ukraine","ISO2":"UA","CONTINENT":"Europe"}},
{"type":"Feature","geometry":{"type":"Polygon","coordinates":[[[23.48,53.91],[22.73,54.33],[19.66,54.43],[14.12,53.76],[15.02,51.11],[18.85,49.5],[22.56,49.09],[23.53,51.58],[23.48,53.91]]]},"properties":{"NAME":"Poland","ISO2":"PL","CONTINENT":"Europe"}},
{"type":"Feature","geometry":{"type":"Polygon","coordinates":[[[16.98,48.12],[16.96,48.6],[13.6,48.88],[9.59,47.53],[10.44,46.89],[13.81,46.51],[16.2,46.85],[16.98,48.12]]]},"properties":{"NAME":"Austria","ISO2":"AT","CONTINENT":"Europe"}},
{"type":"Feature","geometry":{"type":"Polygon","coordinates":[[[22.09,48.42],[16.98,48.12],[16.2,46.85],[16.56,46.5],[18.83,45.91],[20.22,46.13],[22.71,47.88],[22.09,48.42]]]},"properties":{"NAME":"Hungary","ISO2":"HU","CONTINENT":"Europe"}},
{"type":"Feature","geometry":{"type":"Polygon","coordinates":[[[26.62,48.22],[28.23,45.49],[29.12,47.85],[26.62,48.22]]]},"properties":{"NAME":"Moldova","ISO2":"MD","CONTINENT":"Europe"}},
{"type":"Feature","geometry":{"type":"Polygon","coordinates":[[[28.23,45.49],[26.62,48.22],[22.71,47.88],[20.22,46.13],[22.66,44.23],[28.56,43.71],[29.6,45.29],[28.23,45.49]]]},"properties":{"NAME":"Romania","ISO2":"RO","CONTINENT":"Europe"}},
{"type":"Feature","geometry":{"type":"Polygon","coordinates":[[[26.49,55.62],[21.06,56.03],[21.27,55.19],[22.73,54.33],[23.48,53.91],[26.49,55.62]]]},"properties":{"NAME":"Lithuania","ISO2":"LT","CONTINENT":"Europe"}},
{"type":"Feature","geometry":{"type":"Polygon","coordinates":[[[27.29,57.47],[24.31,57.79],[21.06,56.03],[26.49,55.62],[28.18,56.17],[27.29,57.47]]]},"properties":{"NAME":"Latvia","ISO2":"LV","CONTINENT":"Europe"}},
{"type":"Feature","geometry":{"type":"Polygon","coordinates":[[[27.98,59.48],[24.31,57.79],[27.29,57.47],[27.98,59.48]]]},"properties":{"NAME":"Estonia","ISO2":"EE","CONTINENT":"Europe"}},
{"type":"Feature","geometry":{"type":"Polygon","coordinates":[[[14.12,53.76],[9.92,54.98],[8.53,54.96],[6.91,53.48],[6.16,50.8],[6.04,50.13],[6.19,49.46],[7.47,47.62],[9.59,47.53],[13.6,48.88],[15.02,51.11],[14.12,53.76]]]},"properties":{"NAME":"Germany","ISO2":"DE","CONTINENT":"Europe"}},
{"type":"Feature","geometry":{"type":"Polygon","coordinates":[[[22.66,44.23],[22.38,42.32],[22.95,41.34],[26.12,41.83],[28,42.01],[28.56,43.71],[22.66,44.23]]]},"properties":{"NAME":"Bulgaria","ISO2":"BG","CONTINENT":"Europe"}},
{"type":"Feature","geometry":{"type":"Polygon","coordinates":[[[22.95,41.34],[21.02,40.84],[20.15,39.62],[26.06,40.82],[26.12,41.83],[22.95,41.34]]]},"properties":{"NAME":"Greece","ISO2":"GR","CONTINENT":"Europe"}},
{"type":"Feature","geometry":{"type":"MultiPolygon","coordinates":[[[[44.77,37.17],[44.79,39.71],[43.58,41.09],[41.55,41.54],[35.17,42.04],[29.24,41.22],[26.17,39.46],[27.64,36.66],[36.15,35.82],[42.35,37.23],[44.77,37.17]]],[[[26.12,41.83],[26.06,40.82],[28,42.01],[26.12,41.83]]]]},"properties":{"NAME":"Turkey","ISO2":"TR","CONTINENT":"Asia"}},
{"type":"Feature","geometry":{"type":"Polygon","coordinates":[[[21.02,40.84],[20.59,41.86],[20.07,42.59],[19.37,41.88],[20.15,39.62],[21.02,40.84]]]},"properties":{"NAME":"Albania","ISO2":"AL","CONTINENT":"Europe"}},
{"type":"Feature","geometry":{"type":"Polygon","coordinates":[[[16.56,46.5],[13.72,45.5],[16.02,43.51],[18.45,42.48],[18.56,42.65],[19.01,44.86],[18.83,45.91],[16.56,46.5]]]},"properties":{"NAME":"Croatia","ISO2":"HR","CONTINENT":"Europe"}},
{"type":"Feature","geometry":{"type":"Polygon","coordinates":[[[9.59,47.53],[7.47,47.62],[6.84,45.99],[10.44,46.89],[9.59,47.53]]]},"properties":{"NAME":"Switzerland","ISO2":"CH","CONTINENT":"Europe"}},
{"type":"Feature","geometry":{"type":"Polygon","coordinates":[[[6.04,50.13],[5.67,49.53],[6.19,49.46],[6.04,50.13]]]},"properties":{"NAME":"Luxembourg","ISO2":"LU","CONTINENT":"Europe"}},
{"type":"Feature","geometry":{"type":"Polygon","coordinates":[[[6.16,50.8],[3.32,51.35],[2.51,51.15],[5.67,49.53],[6.04,50.13],[6.16,50.8]]]},"properties":{"NAME":"Belgium","ISO2":"BE","CONTINENT":"Europe"}},
{"type":"Feature","geometry":{"type":"Polygon","coordinates":[[[6.91,53.48],[3.32,51.35],[6.16,50.8],[6.91,53.48]]]},"properties":{"NAME":"Netherlands","ISO2":"NL","CONTINENT":"Europe"}},
{"type":"Feature","geometry":{"type":"Polygon","coordinates":[[[-9.03,41.88],[-9.53,38.74],[-7.45,37.1],[-6.67,41.88],[-9.03,41.88]]]},"properties":{"NAME":"Portugal","ISO2":"PT","CONTINENT":"Europe"}},
{"type":"Feature","geometry":{"type":"Polygon","coordinates":[[[-7.45,37.1],[-5.38,35.95],[-0.68,37.64],[2.99,42.47],[-1.9,43.42],[-7.98,43.75],[-9.03,41.88],[-6.67,41.88],[-7.45,37.1]]]},"properties":{"NAME":"Spain","ISO2":"ES","CONTINENT":"Europe"}},
{"type":"Feature","geometry":{"type":"Polygon","coordinates":[[[-6.2,53.87],[-7.57,55.13],[-9.69,53.88],[-8.56,51.67],[-6.2,53.87]]]},"properties":{"NAME":"Ireland","ISO2":"IE","CONTINENT":"Europe"}},
{"type":"Feature","geometry":{"type":"Polygon","coordinates":[[[165.78,-21.08],[164.46,-20.12],[164.17,-20.44],[165.47,-21.68],[165.78,-21.08]]]},"properties":{"NAME":"New Caledonia","ISO2":"NC","CONTINENT":"Oceania"}},
{"type":"Feature","geometry":{"type":"Polygon","coordinates":[[[159.64,-8.02],[158.36,-7.32],[158.59,-7.75],[159.92,-8.54],[159.64,-8.02]]]},"properties":{"NAME":"Solomon Is.","ISO2":"SB","CONTINENT":"Oceania"}},
{"type":"Feature","geometry":{"type":"Polygon","coordinates":[[[169.67,-43.56],[167.05,-45.11],[169.33,-46.64],[174.25,-41.77],[172.1,-40.96],[169.67,-43.56]]]},"properties":{"NAME":"New Zealand","ISO2":"NZ","CONTINENT":"Oceania"}},
{"type":"Feature","geometry":{"type":"Polygon","coordinates":[[[126.15,-32.22],[131.33,-31.5],[134.27,-32.62],[140.64,-38.02],[146.32,-39.04],[150.08,-36.42],[152.89,-31.64],[153.57,-28.11],[152.86,-25.27],[146.39,-18.96],[145.37,-14.98],[141.7,-15.04],[139.26,-17.37],[135.43,-14.72],[133.55,-11.79],[130.62,-12.54],[129.41,-14.42],[125.69,-14.23],[120.86,-19.68],[114.65,-21.83],[113.39,-24.38],[115.8,-32.21],[118.02,-35.06],[123.66,-33.89],[126.15,-32.22]]]},"properties":{"NAME":"Australia","ISO2":"AU","CONTINENT":"Oceania"}},
{"type":"Feature","geometry":{"type":"Polygon","coordinates":[[[81.79,7.52],[79.7,8.2],[80.35,5.97],[81.79,7.52]]]},"properties":{"NAME":"Sri Lanka","ISO2":"LK","CONTINENT":"Asia"}},
{"type":"Feature","geometry":{"type":"Polygon","coordinates":[[[80.26,42.35],[73.68,39.43],[74.98,37.42],[75.16,37.13],[77.84,35.49],[78.74,31.52],[81.11,30.18],[88.12,27.88],[88.81,27.3],[90.02,28.3],[91.7,27.77],[94.57,29.28],[97.33,28.26],[98.68,27.51],[99.24,22.12],[101.18,21.44],[102.17,22.46],[105.33,23.35],[108.05,21.55],[111.84,21.55],[118.66,24.55],[122.09,29.83],[119.15,34.91],[117.53,38.74],[124.27,39.93],[130.64,42.4],[135.03,48.48],[130.99,47.79],[127.66,49.76],[125.95,52.79],[116.68,49.89],[117.42,46.67],[109.24,42.52],[104.96,41.6],[96.35,42.73],[90.95,45.29],[87.75,49.3],[87.36,49.21],[85.16,47],[79.97,44.92],[80.26,42.35]]]},"properties":{"NAME":"China","ISO2":"CN","CONTINENT":"Asia"}},
{"type":"Feature","geometry":{"type":"Polygon","coordinates":[[[121.78,24.39],[120.11,23.56],[120.75,21.97],[121.78,24.39]]]},"properties":{"NAME":"Taiwan","ISO2":"CN-TW","CONTINENT":"Asia"}},
{"type":"Feature","geometry":{"type":"Polygon","coordinates":[[[10.44,46.89],[6.84,45.99],[7.44,43.69],[12.11,41.7],[15.89,41.54],[12.59,44.09],[12.33,45.38],[13.94,45.59],[13.81,46.51],[10.44,46.89]]]},"properties":{"NAME":"Italy","ISO2":"IT","CONTINENT":"Europe"}},
{"type":"Feature","geometry":{"type":"Polygon","coordinates":[[[9.92,54.98],[10.25,56.89],[8.09,56.54],[8.53,54.96],[9.92,54.98]]]},"properties":{"NAME":"Denmark","ISO2":"DK","CONTINENT":"Europe"}},
{"type":"Feature","geometry":{"type":"Polygon","coordinates":[[[-3.09,53.4],[-3.62,50.23],[0.55,50.77],[0.47,52.93],[-5.01,58.63],[-5.59,55.31],[-3.09,53.4]]]},"properties":{"NAME":"United Kingdom","ISO2":"GB","CONTINENT":"Europe"}},
{"type":"Feature","geometry":{"type":"Polygon","coordinates":[[[-14.51,66.46],[-20.58,65.73],[-18.66,63.5],[-13.61,65.13],[-14.51,66.46]]]},"properties":{"NAME":"Iceland","ISO2":"IS","CONTINENT":"Europe"}},
{"type":"Feature","geometry":{"type":"Polygon","coordinates":[[[46.4,41.86],[44.97,41.25],[46.51,38.77],[48.88,38.32],[48.58,41.81],[46.4,41.86]]]},"properties":{"NAME":"Azerbaijan","ISO2":"AZ","CONTINENT":"Asia"}},
{"type":"Feature","geometry":{"type":"Polygon","coordinates":[[[39.96,43.43],[41.55,41.54],[43.58,41.09],[44.97,41.25],[46.4,41.86],[39.96,43.43]]]},"properties":{"NAME":"Georgia","ISO2":"GE","CONTINENT":"Asia"}},
{"type":"Feature","geometry":{"type":"Polygon","coordinates":[[[122.34,18.22],[120.72,18.51],[120.07,14.97],[121.66,15.93],[122.34,18.22]]]},"properties":{"NAME":"Philippines","ISO2":"PH","CONTINENT":"Asia"}},
{"type":"Feature","geometry":{"type":"Polygon","coordinates":[[[117.88,4.14],[115.45,5.45],[115.35,4.32],[114.2,4.53],[109.66,2.01],[110.51,0.77],[114.62,1.43],[115.87,4.31],[117.88,4.14]]]},"properties":{"NAME":"Malaysia","ISO2":"MY","CONTINENT":"Asia"}},
{"type":"Feature","geometry":{"type":"Polygon","coordinates":[[[115.45,5.45],[114.2,4.53],[115.35,4.32],[115.45,5.45]]]},"properties":{"NAME":"Brunei","ISO2":"BN","CONTINENT":"Asia"}},
{"type":"Feature","geometry":{"type":"Polygon","coordinates":[[[13.81,46.51],[13.94,45.59],[13.72,45.5],[16.56,46.5],[16.2,46.85],[13.81,46.51]]]},"properties":{"NAME":"Slovenia","ISO2":"SI","CONTINENT":"Europe"}},
{"type":"Feature","geometry":{"type":"Polygon","coordinates":[[[28.59,69.06],[20.65,69.11],[23.9,66.01],[21.06,62.61],[22.87,59.85],[28.07,60.5],[31.14,62.36],[28.59,69.06]]]},"properties":{"NAME":"Finland","ISO2":"FI","CONTINENT":"Europe"}},
{"type":"Feature","geometry":{"type":"Polygon","coordinates":[[[22.56,49.09],[18.85,49.5],[16.96,48.6],[16.98,48.12],[22.09,48.42],[22.56,49.09]]]},"properties":{"NAME":"Slovakia","ISO2":"SK","CONTINENT":"Europe"}},
{"type":"Feature","geometry":{"type":"Polygon","coordinates":[[[15.02,51.11],[13.6,48.88],[16.96,48.6],[18.85,49.5],[15.02,51.11]]]},"properties":{"NAME":"Czechia","ISO2":"CZ","CONTINENT":"Europe"}},
{"type":"Feature","geometry":{"type":"Polygon","coordinates":[[[36.43,14.42],[39.1,14.74],[42.35,12.54],[43.08,12.7],[39.27,15.92],[38.41,18],[36.43,14.42]]]},"properties":{"NAME":"Eritrea","ISO2":"ER","CONTINENT":"Africa"}},
{"type":"Feature","geometry":{"type":"Polygon","coordinates":[[[141.88,39.18],[135.68,35.53],[138.98,34.67],[141.88,39.18]]]},"properties":{"NAME":"Japan","ISO2":"JP","CONTINENT":"Asia"}},
{"type":"Feature","geometry":{"type":"Polygon","coordinates":[[[-58.17,-20.18],[-61.79,-19.63],[-62.69,-22.25],[-57.78,-25.16],[-54.63,-25.74],[-55.61,-22.66],[-58.17,-20.18]]]},"properties":{"NAME":"Paraguay","ISO2":"PY","CONTINENT":"South America"}},
{"type":"Feature","geometry":{"type":"Polygon","coordinates":[[[52,19],[47,16.95],[42.78,16.35],[43.48,12.64],[48.68,14],[53.11,16.65],[52,19]]]},"properties":{"NAME":"Yemen","ISO2":"YE","CONTINENT":"Asia"}},
{"type":"Feature","geometry":{"type":"Polygon","coordinates":[[[34.96,29.36],[38.49,23.69],[39.14,21.29],[42.78,16.35],[47,16.95],[52,19],[55,20],[55.21,22.71],[51.58,24.25],[51.39,24.63],[50.81,24.75],[48.42,28.55],[46.57,29.1],[44.71,29.18],[39.2,32.16],[34.96,29.36]]]},"properties":{"NAME":"Saudi Arabia","ISO2":"SA","CONTINENT":"Asia"}},
{"type":"Feature","geometry":{"type":"Polygon","coordinates":[[[32.73,35.14],[33.97,35.06],[33.67,35.37],[32.73,35.14]]]},"properties":{"NAME":"N. Cyprus","ISO2":"-99","CONTINENT":"Asia"}},
{"type":"Feature","geometry":{"type":"Polygon","coordinates":[[[32.73,35.14],[32.98,34.57],[33.97,35.06],[32.73,35.14]]]},"properties":{"NAME":"Cyprus","ISO2":"CY","CONTINENT":"Asia"}},
{"type":"Feature","geometry":{"type":"Polygon","coordinates":[[[-2.17,35.17],[-5.93,35.76],[-8.66,33.24],[-9.56,29.93],[-14.44,26.25],[-17.02,21.42],[-14.75,21.5],[-11.39,26.88],[-8.67,27.66],[-1.31,32.26],[-2.17,35.17]]]},"properties":{"NAME":"Morocco","ISO2":"MA","CONTINENT":"Africa"}},
{"type":"Feature","geometry":{"type":"Polygon","coordinates":[[[36.87,22],[33.35,27.7],[34.82,29.76],[34.27,31.22],[28.91,30.87],[25.16,31.57],[25,22],[36.87,22]]]},"properties":{"NAME":"Egypt","ISO2":"EG","CONTINENT":"Africa"}},
{"type":"Feature","geometry":{"type":"Polygon","coordinates":[[[25,22],[25.16,31.57],[20.85,32.71],[19.09,30.27],[11.49,33.14],[9.48,30.31],[10.3,24.38],[12,23.47],[14.85,22.86],[15.86,23.41],[23.84,19.58],[25,22]]]},"properties":{"NAME":"Libya","ISO2":"LY","CONTINENT":"Africa"}},
{"type":"Feature","geometry":{"type":"Polygon","coordinates":[[[47.79,8],[43.68,9.18],[42.78,10.93],[42.35,12.54],[39.1,14.74],[36.43,14.42],[33.97,8.68],[35.3,5.51],[39.56,3.42],[41.86,3.92],[44.96,5],[47.79,8]]]},"properties":{"NAME":"Ethiopia","ISO2":"ET","CONTINENT":"Africa"}},
{"type":"Feature","geometry":{"type":"Polygon","coordinates":[[[42.35,12.54],[42.78,10.93],[43.15,11.46],[43.08,12.7],[42.35,12.54]]]},"properties":{"NAME":"Djibouti","ISO2":"DJ","CONTINENT":"Africa"}},
{"type":"Feature","geometry":{"type":"Polygon","coordinates":[[[48.95,11.41],[44.12,10.45],[43.15,11.46],[42.78,10.93],[43.68,9.18],[47.79,8],[48.95,11.41]]]},"properties":{"NAME":"Somaliland","ISO2":"-99","CONTINENT":"Africa"}},
{"type":"Feature","geometry":{"type":"Polygon","coordinates":[[[33.9,-0.95],[35.04,1.91],[34.01,4.25],[30.83,3.51],[29.58,-1.34],[30.42,-1.13],[33.9,-0.95]]]},"properties":{"NAME":"Uganda","ISO2":"UG","CONTINENT":"Africa"}},
{"type":"Feature","geometry":{"type":"Polygon","coordinates":[[[30.42,-1.13],[29.58,-1.34],[29.02,-2.84],[30.47,-2.41],[30.42,-1.13]]]},"properties":{"NAME":"Rwanda","ISO2":"RW","CONTINENT":"Africa"}},
{"type":"Feature","geometry":{"type":"Polygon","coordinates":[[[18.56,42.65],[19.22,43.52],[19.01,44.86],[18.56,42.65]]]},"properties":{"NAME":"Bosnia and Herz.","ISO2":"BA","CONTINENT":"Europe"}},
{"type":"Feature","geometry":{"type":"Polygon","coordinates":[[[22.38,42.32],[21.58,42.25],[20.59,41.86],[21.02,40.84],[22.95,41.34],[22.38,42.32]]]},"properties":{"NAME":"North Macedonia","ISO2":"MK","CONTINENT":"Europe"}},
{"type":"Feature","geometry":{"type":"Polygon","coordinates":[[[18.83,45.91],[19.01,44.86],[19.22,43.52],[20.26,42.81],[21.58,42.25],[22.38,42.32],[22.66,44.23],[20.22,46.13],[18.83,45.91]]]},"properties":{"NAME":"Serbia","ISO2":"RS","CONTINENT":"Europe"}},
{"type":"Feature","geometry":{"type":"Polygon","coordinates":[[[20.07,42.59],[20.26,42.81],[19.22,43.52],[18.56,42.65],[18.45,42.48],[19.37,41.88],[20.07,42.59]]]},"properties":{"NAME":"Montenegro","ISO2":"ME","CONTINENT":"Europe"}},
{"type":"Feature","geometry":{"type":"Polygon","coordinates":[[[20.59,41.86],[21.58,42.25],[20.26,42.81],[20.07,42.59],[20.59,41.86]]]},"properties":{"NAME":"Kosovo","ISO2":"XK","CONTINENT":"Europe"}},
{"type":"Feature","geometry":{"type":"Polygon","coordinates":[[[-61.68,10.76],[-61.77,10],[-60.93,10.11],[-60.89,10.86],[-61.68,10.76]]]},"properties":{"NAME":"Trinidad and Tobago","ISO2":"TT","CONTINENT":"North America"}},
{"type":"Feature","geometry":{"type":"Polygon","coordinates":[[[30.83,3.51],[34.01,4.25],[35.3,5.51],[33.97,8.68],[31.35,9.81],[26.48,9.55],[24.57,8.23],[27.37,5.23],[30.83,3.51]]]},"properties":{"NAME":"S. Sudan","ISO2":"SS","CONTINENT":"Africa"}}
]}