{"type":"FeatureCollection","features":[{"type":"Feature","properties":{"nomad":"Sao Paulo, Brazil","country":"Brazil"},"geometry":{"type":"Polygon","coordinates":[[[-51.2632352,-20.8639536],[-51.1325933,-21.1544795],[-46.6495446,-24.1002081],[-45.3677999,-23.8185152],[-44.9955392,-23.397212],[-48.581175,-20.554405],[-51.2632352,-20.8639536]]]}},{"type":"Feature","properties":{"nomad":"Minas Gerais, Brazil","country":"Brazil"},"geometry":{"type":"Polygon","coordinates":[[[-46.6107891,-20.7285579],[-46.5676107,-21.7897962],[-44.0204429,-20.3144989],[-42.5688751,-19.4667463],[-46.3902477,-20.6088443],[-46.6107891,-20.7285579]]]}},{"type":"Feature","properties":{"nomad":"Florida, United States","country":"United States"},"geometry":{"type":"Polygon","coordinates":[[[-80.430734,25.110364],[-80.1901155,25.7649621],[-80.283589,25.708794],[-80.430734,25.110364]]]}},{"type":"Feature","properties":{"nomad":"Rio de Janeiro, Brazil","country":"Brazil"},"geometry":{"type":"Polygon","coordinates":[[[-44.7342883,-23.2151886],[-44.1614466,-23.1414896],[-43.3272026,-23.0103906],[-41.922664,-22.7807838],[-43.73632,-22.709341],[-44.7226531,-23.2040528],[-44.7342883,-23.2151886]]]}},{"type":"Feature","properties":{"nomad":"Goias, Brazil","country":"Brazil"},"geometry":{"type":"Polygon","coordinates":[[[-49.2651039,-16.6856927],[-49.2407598,-16.7053087],[-49.2238764,-16.6982281],[-49.223833,-16.697892],[-49.2221166,-16.632488],[-49.2651039,-16.6856927]]]}},{"type":"Feature","properties":{"nomad":"Para, Brazil","country":"Brazil"},"geometry":{"type":"Polygon","coordinates":[[[-48.4893956,-1.4527044],[-47.9206769,-1.2984101],[-47.9233799,-1.2933332],[-47.928863,-1.292903],[-48.4893956,-1.4527044]]]}},{"type":"Feature","properties":{"nomad":"Parana, Brazil","country":"Brazil"},"geometry":{"type":"Polygon","coordinates":[[[-49.287489,-25.440765],[-48.5732547,-25.9112889],[-48.5031689,-25.5111718],[-49.287489,-25.440765]]]}},{"type":"Feature","properties":{"nomad":"Rio Grande do Sul, Brazil","country":"Brazil"},"geometry":{"type":"Polygon","coordinates":[[[-51.2780552,-29.9864251],[-51.203336,-30.0212774],[-51.1455848,-29.9962269],[-50.8473595,-29.3570496],[-51.0877516,-29.5835848],[-51.2780552,-29.9864251]]]}},{"type":"Feature","properties":{"nomad":"Bahia, Brazil","country":"Brazil"},"geometry":{"type":"Polygon","coordinates":[[[-39.1468775,-16.809678],[-39.1114961,-16.8963919],[-39.0113153,-16.2484361],[-38.9069793,-13.6104838],[-38.9079742,-13.4095048],[-38.9911302,-14.2755721],[-39.02795,-14.811349],[-39.1466876,-16.8052263],[-39.1468775,-16.809678]]]}},{"type":"Feature","properties":{"nomad":"Ceara, Brazil","country":"Brazil"},"geometry":{"type":"Polygon","coordinates":[[[-40.6913558,-2.8528662],[-38.565332,-3.7920839],[-40.4162946,-2.8125804],[-40.6913558,-2.8528662]]]}},{"type":"Feature","properties":{"nomad":"Baladiyat ad Dawhah, Qatar","country":"Qatar"},"geometry":{"type":"Polygon","coordinates":[[[51.5390231,25.3676716],[51.5393217,25.3670407],[51.5565837,25.363047],[51.5604102,25.3649793],[51.5390231,25.3676716]]]}},{"type":"Feature","properties":{"nomad":"Amman, Jordan","country":"Jordan"},"geometry":{"type":"Polygon","coordinates":[[[35.9213964,31.9592514],[35.9864651,31.7223312],[35.9219687,31.9579387],[35.9213964,31.9592514]]]}},{"type":"Feature","properties":{"nomad":"Surat Thani, Thailand","country":"Thailand"},"geometry":{"type":"Polygon","coordinates":[[[99.1741411,9.3585582],[99.2289481,9.1056172],[100.0674896,9.6765069],[99.1741411,9.3585582]]]}},{"type":"Feature","properties":{"nomad":"Bangkok, Thailand","country":"Thailand"},"geometry":{"type":"Polygon","coordinates":[[[100.4968128,13.7632304],[100.5010209,13.71816],[100.534128,13.699914],[100.7468694,13.6818969],[100.5399431,13.8043718],[100.4968128,13.7632304]]]}},{"type":"Feature","properties":{"nomad":"Chiang Mai, Thailand","country":"Thailand"},"geometry":{"type":"Polygon","coordinates":[[[98.448971,19.3605559],[98.98204,18.79351],[98.9939281,18.7910738],[98.448971,19.3605559]]]}},{"type":"Feature","properties":{"nomad":"Ile-de-France, France","country":"France"},"geometry":{"type":"Polygon","coordinates":[[[2.3512164,48.8407124],[2.3528515,48.841884],[2.3790032,48.8885045],[2.3512164,48.8407124]]]}},{"type":"Feature","properties":{"nomad":"Flanders, Belgium","country":"Belgium"},"geometry":{"type":"Polygon","coordinates":[[[3.7198638,51.053932],[4.4855744,50.900999],[4.416947,51.2205122],[3.7198638,51.053932]]]}},{"type":"Feature","properties":{"nomad":"Madrid, Spain","country":"Spain"},"geometry":{"type":"Polygon","coordinates":[[[-3.7080784,40.4206776],[-3.7069176,40.4167407],[-3.7033094,40.4127352],[-3.7080784,40.4206776]]]}},{"type":"Feature","properties":{"nomad":"Catalonia, Spain","country":"Spain"},"geometry":{"type":"Polygon","coordinates":[[[0.47093,41.6848411],[0.6340459,41.6177915],[2.0800095,41.2983405],[3.194944,42.048526],[1.4557596,42.3600594],[0.47093,41.6848411]]]}},{"type":"Feature","properties":{"nomad":"Provence-Alpes-Cote d'Azur, France","country":"France"},"geometry":{"type":"Polygon","coordinates":[[[5.2073186,43.9159022],[5.214414,43.4384235],[5.3715545,43.2915997],[7.3289363,43.705474],[5.2073186,43.9159022]]]}},{"type":"Feature","properties":{"nomad":"England, United Kingdom","country":"United Kingdom"},"geometry":{"type":"Polygon","coordinates":[[[-5.0718904,50.4160978],[-0.092835,51.5004387],[0.900361,51.8896179],[1.7385548,52.6035422],[-2.1420017,51.6856541],[-5.0718904,50.4160978]]]}},{"type":"Feature","properties":{"nomad":"Aquitaine, France","country":"France"},"geometry":{"type":"Polygon","coordinates":[[[-1.7401042,43.3728528],[-1.4687528,43.4953496],[-0.5728,44.8413],[-1.7401042,43.3728528]]]}},{"type":"Feature","properties":{"nomad":"Basque Country, Spain","country":"Spain"},"geometry":{"type":"Polygon","coordinates":[[[-2.931641,43.2668825],[-2.1745568,43.2865091],[-1.9664675,43.3070979],[-2.931641,43.2668825]]]}},{"type":"Feature","properties":{"nomad":"Andalusia, Spain","country":"Spain"},"geometry":{"type":"Polygon","coordinates":[[[-6.2961478,36.5316834],[-5.7522424,36.0732674],[-5.607229,36.0141679],[-5.6035618,36.0151068],[-3.603301,37.1781753],[-5.9900295,37.3855085],[-6.2961478,36.5316834]]]}},{"type":"Feature","properties":{"nomad":"Tanger-Tetouan, Morocco","country":"Morocco"},"geometry":{"type":"Polygon","coordinates":[[[-5.8102123,35.7871512],[-5.8101516,35.7844463],[-5.2631924,35.1680392],[-5.8102123,35.7871512]]]}},{"type":"Feature","properties":{"nomad":"Capital Region, Denmark","country":"Denmark"},"geometry":{"type":"Polygon","coordinates":[[[12.5384071,55.7033185],[12.5610167,55.6678361],[12.5597543,55.6763388],[12.5384071,55.7033185]]]}},{"type":"Feature","properties":{"nomad":"Espirito Santo, Brazil","country":"Brazil"},"geometry":{"type":"Polygon","coordinates":[[[-40.3793409,-19.8308939],[-40.2940324,-20.2908335],[-40.2940323,-20.2908334],[-40.3793409,-19.8308939]]]}},{"type":"Feature","properties":{"nomad":"Valencia, Spain","country":"Spain"},"geometry":{"type":"Polygon","coordinates":[[[-0.3700683,39.4578992],[-0.3389213,39.4718255],[-0.3622162,39.4852793],[-0.3700318,39.4746183],[-0.3700683,39.4578992]]]}},{"type":"Feature","properties":{"nomad":"Baden-Wuerttemberg, Germany","country":"Germany"},"geometry":{"type":"Polygon","coordinates":[[[7.7997279,48.5658662],[7.8582208,47.9921479],[9.1914938,48.7933066],[7.7997279,48.5658662]]]}},{"type":"Feature","properties":{"nomad":"Berlin, Germany","country":"Germany"},"geometry":{"type":"Polygon","coordinates":[[[13.30481,52.51199],[13.3073873,52.5061569],[13.4177774,52.4999658],[13.46225,52.5086781],[13.30481,52.51199]]]}},{"type":"Feature","properties":{"nomad":"Vilnius County, Lithuania","country":"Lithuania"},"geometry":{"type":"Polygon","coordinates":[[[25.2658825,54.6792365],[25.2806503,54.6496361],[25.3022312,54.6777917],[25.2849759,54.6870228],[25.2658825,54.6792365]]]}},{"type":"Feature","properties":{"nomad":"Crete, Greece","country":"Greece"},"geometry":{"type":"Polygon","coordinates":[[[23.9791953,35.5117268],[24.4751845,35.367396],[24.0264449,35.5145642],[23.9791953,35.5117268]]]}},{"type":"Feature","properties":{"nomad":"Campania, Italy","country":"Italy"},"geometry":{"type":"Polygon","coordinates":[[[14.2499446,40.8456382],[14.3550763,40.7948613],[14.2725814,40.8513294],[14.2499446,40.8456382]]]}}]}